name,address,lat,lon,full_address
三笠,三笠市,43.246604,141.8044452,日本、〒068-2165 北海道三笠市岡山１０５６
スタープラザ　芦別,芦別市,43.525652,142.1890762,日本、〒075-0014 北海道芦別市北４条東１丁目１
南ふらの,空知郡南富良野町,43.1641598,142.5685703,日本、〒079-2400 北海道空知郡南富良野町幾寅６８７
しらぬか恋問,白糠郡白糠町,42.9927701,144.1987141,日本、〒088-0562 北海道白糠郡白糠町恋問３丁目３番地１
びふか,中川郡美深町,44.5588409,142.3201455,日本、〒098-2362 北海道中川郡美深町大手３０７−１
江差,檜山郡江差町,41.8944201,140.1391509,日本、〒043-0024 北海道檜山郡江差町尾山町1−番地
望羊中山,虻田郡喜茂別町,42.8562367,141.0976534,日本、〒044-0223 北海道虻田郡喜茂別町川上３４５
えんべつ富士見,天塩郡遠別町,44.7144023,141.792425,日本、〒098-3534 北海道天塩郡遠別町富士見46−１
忠類,中川郡幕別町,42.5593854,143.3002944,日本、〒089-1701 北海道中川郡幕別町忠類白銀町384番地12
摩周温泉,川上郡弟子屈町,43.4924307,144.4476898,日本、〒088-3203 北海道川上郡弟子屈町湯の島３丁目５−５
おといねっぷ,中川郡音威子府村,44.7291201,142.2578651,日本、〒098-2501 北海道中川郡音威子府村字音威子府１５５
かみゆうべつ温泉チューリップの湯,紋別郡湧別町,44.1851185,143.595529,日本、〒099-6329 北海道紋別郡湧別町中湧別中町３０２０−１
いわない,岩内郡岩内町,42.9834586,140.5168083,日本、〒045-0003 北海道岩内郡岩内町万代４７−４
まるせっぷ,紋別郡遠軽町,43.99646389999999,143.3286608,日本、〒099-0207 北海道紋別郡遠軽町丸瀬布元町４２−２
厚岸グルメパーク,厚岸郡厚岸町,43.0575959,144.8440867,日本、〒088-1119 北海道厚岸郡厚岸町住の江２丁目２
サンフラワー北竜,雨竜郡北竜町,43.7514275,141.875517,日本、〒078-2511 北海道雨竜郡北竜町板谷１６３−２
みついし,日高郡新ひだか町,42.22092010000001,142.6346509,日本、〒059-3233 北海道日高郡新ひだか町三石鳧舞１６１−２
あっさぶ,檜山郡厚沢部町,41.9152242,140.2185874,日本、〒043-1112 北海道檜山郡厚沢部町緑町７２−１
よってけ！島牧,島牧郡島牧村,42.6865405,140.0129681,日本、〒048-0631 北海道島牧郡島牧村千走１１−１
てっくいランド大成,久遠郡せたな町,42.2079573,139.8812709,日本、〒043-0514 北海道久遠郡せたな町大成区平浜３７５
オホーツク紋別,紋別市,44.3281926,143.3749915,日本、〒094-0023 北海道紋別市元紋別１１−６
YOU･遊･もり,茅部郡森町,42.0990385,140.5682893,日本、〒049-2311 北海道茅部郡森町上台町３２６−１８
おんねゆ温泉,北見市,43.7547825,143.5007228,日本、〒091-0153 北海道北見市留辺蘂町松山１−４
ルート２２９元和台,爾志郡乙部町,42.0111589,140.1061888,日本、〒043-0114 北海道爾志郡乙部町元和１６９
ハウスヤルビ奈井江,空知郡奈井江町,43.433529,141.8886603,日本、〒079-0300 北海道空知郡奈井江町奈井江 28番地1
おびら鰊番屋,留萌郡小平町,44.139226,141.6758665,日本、〒078-3454 北海道留萌郡小平町字鬼鹿広富
マリーンアイランド岡島,枝幸郡枝幸町,44.8786503,142.6304258,日本、〒098-5802 北海道枝幸郡枝幸町岡島１９７８−１３
おこっぺ,紋別郡興部町,44.4693319,143.1166543,日本、〒098-1601 北海道紋別郡興部町興部１３２２−２１
阿寒丹頂の里,釧路市,43.1442905,144.145029,日本、〒085-0245 北海道釧路市阿寒町上阿寒２３線３６−１
おとふけ,河東郡音更町,42.9751667,143.1814582,日本、〒080-0346 北海道河東郡音更町 2番地 なつぞら
ピンネシリ,枝幸郡中頓別町,44.8769256,142.2136557,日本、〒098-5113 北海道枝幸郡中頓別町敏音知72番地7
上ノ国もんじゅ,檜山郡上ノ国町,41.8085525,140.0952852,日本、〒049-0602 北海道檜山郡上ノ国町原歌３
オスコイ！かもえない,古宇郡神恵内村,43.1653611,140.3856066,日本、〒045-0302 北海道古宇郡神恵内村赤石村大森２９２−１
なかさつない,河西郡中札内村,42.6920043,143.1261621,日本、〒089-1330 北海道河西郡中札内村大通南７丁目14
マオイの丘公園,夕張郡長沼町,42.9500743,141.7167563,日本、〒069-1460 北海道夕張郡長沼町東１０線南7−番地
樹海ロード日高,沙流郡日高町,42.876869,142.4420611,日本、〒055-2301 北海道沙流郡日高町本町東１丁目２９８−１
そうべつ情報館ｉ（アイ）,有珠郡壮瞥町,42.5590856,140.8990487,日本、〒052-0101 北海道有珠郡壮瞥町滝之町３８４−１
ニセコビュープラザ,虻田郡ニセコ町,42.7995411,140.702488,日本、〒048-1544 北海道虻田郡ニセコ町元町７７−１０
しりうち,上磯郡知内町,41.6145919,140.3013741,日本、〒049-1221 北海道上磯郡知内町字湯の里４８−１３
横綱の里ふくしま,松前郡福島町,41.4793828,140.2557251,日本、〒049-1312 北海道松前郡福島町福島１４３−１
サラブレッドロード新冠,新冠郡新冠町,42.3596793,142.3161246,日本、〒059-2402 北海道新冠郡新冠町中央町1番地20
ピア２１しほろ,河東郡士幌町,43.1443239,143.2395217,日本、〒080-1200 北海道河東郡士幌町士幌西２線134 番地１
香りの里たきのうえ,紋別郡滝上町,44.1946875,143.0809917,日本、〒099-5602 北海道紋別郡滝上町旭町
田園の里うりゅう,雨竜郡雨竜町,43.6619462,141.8943288,日本、〒078-2600 北海道雨竜郡雨竜町満寿２８−３
みたら室蘭,室蘭市,42.3419134,140.9436515,日本、〒051-0036 北海道室蘭市祝津町４丁目１６−１５
とうま,上川郡当麻町,43.8393707,142.4839964,日本、〒078-1332 北海道上川郡当麻町宇園別２区
スペース・アップルよいち,余市郡余市町,43.1893948,140.7890823,日本、〒046-0003 北海道余市郡余市町黒川町６丁目４−１
ほっと♡はぼろ,苫前郡羽幌町,44.3689814,141.7083091,日本、〒078-4113 北海道苫前郡羽幌町北３条１丁目２９
サロマ湖,常呂郡佐呂間町,44.0998874,143.8246812,日本、〒093-0421 北海道常呂郡佐呂間町浪速１２１−３
愛ランド湧別,紋別郡湧別町,44.1122241,143.7077415,日本、〒093-0652 北海道紋別郡湧別町志撫子
おうむ,紋別郡雄武町,44.583066,142.9596874,日本、〒098-1702 北海道紋別郡雄武町雄武１８８５番地１４
さるふつ公園,宗谷郡猿払村,45.329112,142.1772262,日本、〒098-6222 北海道宗谷郡猿払村浜鬼志別２１４−７
森と湖の里ほろかない,雨竜郡幌加内町,44.11764549999999,142.1165369,日本、〒074-0425 北海道雨竜郡幌加内町字政和第一
うたしないチロルの湯,歌志内市,43.5033418,142.0059429,日本、〒073-0406 北海道歌志内市中村７２−２
くろまつない,寿都郡黒松内町,42.6720771,140.3814722,日本、〒048-0134 北海道寿都郡黒松内町白井川８−１０
たきかわ,滝川市,43.6233655,141.9414236,日本、〒079-0463 北海道滝川市江部乙町東１１丁目１３−３
スワン４４ねむろ,根室市,43.261772,145.4386158,日本、〒086-0073 北海道根室市酪陽１−番地
つるぬま,樺戸郡浦臼町,43.4478141,141.8400293,日本、〒061-0600 北海道樺戸郡浦臼町キナウスナイ１８８
なとわ・えさん,函館市,41.77898709999999,141.1010605,日本、〒041-0525 北海道函館市日ノ浜町３１−２
つど～る・プラザ・さわら,茅部郡森町,42.1251559,140.6675972,日本、〒049-2222 北海道茅部郡森町砂原２丁目３５８−１
知床・らうす,目梨郡羅臼町,44.0172479,145.1920088,日本、〒086-1833 北海道目梨郡羅臼町本町３６１−１
さらべつ,河西郡更別村,42.6333435,143.2718699,日本、〒089-1573 北海道河西郡更別村弘和４６４−１
だて歴史の杜,伊達市,42.4722951,140.8779565,日本、〒052-0012 北海道伊達市松ヶ枝町３４−１
あさひかわ,旭川市,43.7600373,142.3483831,日本、〒070-8004 北海道旭川市神楽４条６丁目１−１２
自然体感しむかっぷ,勇払郡占冠村,42.9797423,142.4214117,日本、〒079-2201 北海道勇払郡占冠村中央
にしおこっぺ花夢,紋別郡西興部村,44.3359475,142.8666339,日本、〒098-1421 北海道紋別郡西興部村上興部３７
オーロラタウン９３りくべつ,足寄郡陸別町,43.5806153,143.692106,日本、〒089-4300 北海道足寄郡陸別町大通 沿い
はなやか（葉菜野花）小清水,斜里郡小清水町,43.9338996,144.4522979,日本、〒099-3452 北海道斜里郡小清水町浜小清水４７４−７
ライスランドふかがわ,深川市,43.7001752,142.0703307,日本、〒074-1271 北海道深川市音江町広里５９−７
なかがわ,中川郡中川町,44.8024072,142.0671917,日本、〒098-2805 北海道中川郡中川町誉４９８番地１
２３０ルスツ,虻田郡留寿都村,42.7416093,140.8868875,日本、〒048-1731 北海道虻田郡留寿都村留寿都１２７
てしお,天塩郡天塩町,44.8845732,141.7478703,日本、〒098-3305 北海道天塩郡天塩町新開通４丁目７２２７−２
コスモール大樹,広尾郡大樹町,42.4898563,143.2732286,日本、〒089-2152 北海道広尾郡大樹町西本通98
ぐるっとパノラマ美幌峠,網走郡美幌町,43.6518839,144.2008416,日本、〒092-0022 北海道網走郡美幌町古梅
らんこし・ふるさとの丘,磯谷郡蘭越町,42.76220929999999,140.4790883,日本、〒048-1251 北海道磯谷郡蘭越町相生９６９
とようら,虻田郡豊浦町,43.52450049999999,142.2018016,日本、〒049-5412 北海道虻田郡豊浦町旭町６５−８
メルヘンの丘めまんべつ,網走郡大空町,43.9227503,144.1904753,日本、〒099-2356 北海道網走郡大空町女満別昭和９６−１
むかわ四季の館,勇払郡むかわ町,42.5741263,141.9250225,日本、〒054-0042 北海道勇払郡むかわ町美幸３丁目３−１
あいおい,網走郡津別町,43.5455052,143.980355,日本、〒092-0361 北海道網走郡津別町相生８３−１
しかおい,河東郡鹿追町,43.09648079999999,142.991219,日本、〒081-0222 北海道河東郡鹿追町東町３丁目２
しらたき,紋別郡遠軽町,43.88431749999999,143.0517512,日本、〒099-0126 北海道紋別郡遠軽町奥白滝
あしょろ銀河ホール２１,足寄郡足寄町,43.2450567,143.5465668,日本、〒089-3701 北海道足寄郡足寄町北１条１丁目２１
サーモンパーク千歳,千歳市,42.8341848,141.6589448,日本、〒066-0028 北海道千歳市花園２丁目４−４
ひがしかわ「道草館」,上川郡東川町,43.6973119,142.5088535,日本、〒071-1423 北海道上川郡東川町東町１丁目１−１５
花ロードえにわ,恵庭市,42.8972989,141.5857718,日本、〒061-1375 北海道恵庭市南島松８１７−１８
シェルプラザ・港,磯谷郡蘭越町,42.880151,140.3700072,日本、〒048-1341 北海道磯谷郡蘭越町港町１４０２−１
真狩フラワーセンター,虻田郡真狩村,42.7574041,140.816757,日本、〒048-1611 北海道虻田郡真狩村光８−３
鐘のなるまち・ちっぷべつ,雨竜郡秩父別町,43.7648283,141.9652303,日本、〒078-2100 北海道雨竜郡秩父別町秩父別２０８５−１２６４
あぷた,虻田郡洞爺湖町,42.5289789,140.7787133,日本、〒049-5603 北海道虻田郡洞爺湖町入江８４−２
うりまく,河東郡鹿追町,43.1698745,143.0251025,日本、〒081-0341 北海道河東郡鹿追町瓜幕西３丁目 １番地
絵本の里けんぶち,上川郡剣淵町,44.0955076,142.390395,日本、〒098-0341 北海道上川郡剣淵町東町２４２０
風Ｗとままえ,苫前郡苫前町,44.31312519999999,141.6563867,日本、〒078-3701 北海道苫前郡苫前町苫前１１９−１
しほろ温泉,河東郡士幌町,43.1385928,143.3682437,日本、〒080-1285 北海道河東郡士幌町下居辺西２線１３４
名水の郷きょうごく,虻田郡京極町,42.8356398,140.8492779,日本、〒044-0131 北海道虻田郡京極町川西４５−１
びえい「丘のくら」,上川郡美瑛町,43.5921379,142.4637854,日本、〒071-0208 北海道上川郡美瑛町本町１丁目９−２１
☆ロマン街道しょさんべつ,苫前郡初山別村,44.5632755,141.777468,日本、〒078-4431 北海道苫前郡初山別村豊岬153番地1 駐車場
うとろ・シリエトク,斜里郡斜里町,44.0687575,144.990362,日本、〒099-4354 北海道斜里郡斜里町ウトロ西１８６−８
しゃり,斜里郡斜里町,43.9114471,144.6647511,日本、〒099-4113 北海道斜里郡斜里町本町３７
パパスランドさっつる,斜里郡清里町,43.8157435,144.5286342,日本、〒099-4522 北海道斜里郡清里町神威１０７１
もち米の里☆なよろ,名寄市,44.2874187,142.4137721,日本、〒098-0507 北海道名寄市風連町西町３３４番地１
みなとま～れ寿都,寿都郡寿都町,42.79557639999999,140.2318317,日本、〒048-0404 北海道寿都郡寿都町大磯町２９−１
とうや湖,虻田郡洞爺湖町,42.6644984,140.8220439,日本、〒049-5831 北海道虻田郡洞爺湖町香川９−４
流氷街道網走,網走市,44.02205960000001,144.2739072,日本、〒093-0003 北海道網走市南３条東４丁目５−１
北前船 松前,松前郡松前町,41.4265363,140.1071855,日本、〒049-1506 北海道松前郡松前町唐津３７９
ステラ★ほんべつ,中川郡本別町,43.1257769,143.6132722,日本、〒089-3334 北海道中川郡本別町北３丁目１−１
ウトナイ湖,苫小牧市,42.70402,141.704031,日本、〒059-1365 北海道苫小牧市植苗１５６−３０
うらほろ,十勝郡浦幌町,42.813907,143.6636375,日本、〒089-5621 北海道十勝郡浦幌町北町１６−３
しんしのつ,石狩郡新篠津村,43.2470653,141.6357277,日本、〒068-1100 北海道石狩郡新篠津村第４５線北2番地
夕張メロード,夕張市,42.9367354,142.038806,日本、〒068-0755 北海道夕張市紅葉山５２６−１９
おだいとう,野付郡別海町,43.533357,145.2369067,日本、〒086-1641 北海道野付郡別海町尾岱沼５−２７
縄文ロマン　南かやべ,函館市,41.92791889999999,140.9446104,日本、〒041-1613 北海道函館市臼尻町５５１−１
わっかない,稚内市,45.4149453,141.6812653,日本、〒097-0023 北海道稚内市開運２丁目
あかいがわ,余市郡赤井川村,43.0539659,140.8340407,日本、〒046-0541 北海道余市郡赤井川村都１９０−１６
みそぎの郷　きこない,上磯郡木古内町,41.6778286,140.4353858,日本、〒049-0422 北海道上磯郡木古内町本町３３８−１４
しかべ間歇泉公園,茅部郡鹿部町,42.0289863,140.8295672,日本、〒041-1402 北海道茅部郡鹿部町鹿部１８−１
ノンキーランド　ひがしもこと,網走郡大空町,43.84511759999999,144.2947352,日本、〒099-3244 北海道網走郡大空町東藻琴１００
北欧の風　道の駅とうべつ,石狩郡当別町,43.1769976,141.448337,日本、〒061-3773 北海道石狩郡当別町当別太７７４番地１１
石狩「あいろーど厚田」,石狩市,43.4042831,141.4313412,日本、〒061-3601 北海道石狩市厚田区厚田９８−２
なないろ・ななえ,亀田郡七飯町,41.9259558,140.6571445,日本、〒041-1102 北海道亀田郡七飯町峠下３８０−２
びえい「白金ビルケ」,上川郡美瑛町,43.4629555,142.6831375,日本、〒071-0235 北海道上川郡美瑛町白金
北オホーツクはまとんべつ,枝幸郡浜頓別町,45.126248,142.3592923,日本、〒098-5704 北海道枝幸郡浜頓別町中央北
あびら D51ステーション,勇払郡安平町,42.8736889,141.8186818,日本、〒059-1921 北海道勇払郡安平町追分柏が丘４９−１
遠軽 森のオホーツク,紋別郡遠軽町,44.0218942,143.4964603,日本、〒099-0344 北海道紋別郡遠軽町野上１５０−１
るもい,留萌市,43.9443896,141.6488119,日本、〒077-0005 北海道留萌市船場町２丁目１１４
かみしほろ,河東郡上士幌町,43.2248408,143.2907309,日本、〒080-1408 北海道河東郡上士幌町上士幌東３線２２７−１
ガーデンスパ十勝川温泉,河東郡音更町,42.9334365,143.300833,日本、〒080-0262 北海道河東郡音更町十勝川温泉北１４丁目１
羊のまち 侍・しべつ,士別市,44.17672580000001,142.3928839,日本、〒095-0019 北海道士別市大通東５丁目４４０−２３
しちのへ,上北郡七戸町,40.717353,141.1559989,日本、〒039-2501 青森県上北郡七戸町荒熊内６７−９４
はしかみ,三戸郡階上町,40.4580396,141.6080321,日本、〒039-1201 青森県三戸郡階上町道仏耳ケ吠３−３
虹の湖,黒石市,40.5824051,140.6871997,日本、〒036-0402 青森県黒石市沖浦山神１−５
わきのさわ,むつ市,41.1690524,140.8039577,日本、〒039-5323 青森県むつ市脇野沢七引２０１−５
かわうち湖,むつ市,41.27041579999999,140.8883605,日本、〒039-4701 青森県むつ市川内町福浦山３１４
しんごう,三戸郡新郷村,40.4306652,141.0709815,日本、〒039-1801 青森県三戸郡新郷村戸来雨池１１−２
ひろさき,弘前市,40.5549118,140.5488621,日本、〒036-8124 青森県弘前市石川泉田６２−１
奥入瀬,十和田市,40.58518309999999,141.1174174,日本、〒034-0301 青森県十和田市奥瀬堰道３９−１
さんのへ,三戸郡三戸町,,,
なみおか,青森市,40.71842789999999,140.5801991,日本、〒038-1331 青森県青森市浪岡大字女鹿沢野尻２−３
十三湖高原,五所川原市,41.0440175,140.3784014,日本、〒037-0401 青森県五所川原市相内実取２８７−１０５８
いまべつ,東津軽郡今別町,41.1455396,140.5142491,日本、〒030-1505 青森県東津軽郡今別町大川平清川８７−１６
なんごう,八戸市,40.4067155,141.4304965,日本、〒031-0114 青森県八戸市南郷大字中野舘野４−４
もりた,つがる市,40.7844148,140.3219768,日本、〒038-2817 青森県つがる市森田町床舞稚桜４−１
浅虫温泉,青森市,40.891644,140.8614048,日本、〒039-3501 青森県青森市浅虫蛍谷３４１−１９
いかりがせき,平川市,40.4814261,140.6230246,日本、〒038-0101 青森県平川市碇ヶ関碇石１３−１
いなかだて,南津軽郡田舎館村,40.6336789,140.5775102,日本、〒038-1111 青森県南津軽郡田舎館村高樋八幡１０−１０
よこはま,上北郡横浜町,41.0837544,141.2572306,日本、〒039-4134 青森県上北郡横浜町林ノ脇７９−１２
みんまや,東津軽郡外ヶ浜町,41.2539745,140.3466878,日本、〒030-1711 青森県東津軽郡外ヶ浜町三厩龍浜９９
こどまり,北津軽郡中泊町,41.1453818,140.3201035,日本、〒037-0300 青森県北津軽郡中泊町小泊折腰内４５−４５
みさわ,三沢市,40.78565560000001,141.3640756,日本、〒033-0164 青森県三沢市谷地頭４丁目２９８−６５２
とわだ,十和田市,40.5744041,141.2647703,日本、〒034-0051 青森県十和田市伝法平窪３７−２
つるた,北津軽郡鶴田町,40.7356534,140.4442948,日本、〒038-3524 青森県北津軽郡鶴田町境里見１７６−１
ふかうら,西津軽郡深浦町,40.7415315,140.0000272,日本、〒038-2411 青森県西津軽郡深浦町風合瀬上砂子川１４４−１
おがわら湖,上北郡東北町,40.72827849999999,141.2747295,日本、〒039-2401 青森県上北郡東北町上野南谷地１２２番
たいらだて,東津軽郡外ヶ浜町,41.1751674,140.6414663,日本、〒030-1402 青森県東津軽郡外ヶ浜町平舘太郎右エ門沢１−３
ろくのへ,上北郡六戸町,40.6063603,141.324717,日本、〒039-2371 青森県上北郡六戸町犬落瀬後田８７−８７
津軽白神,中津軽郡西目屋村,40.5778801,140.3003596,日本、〒036-1411 青森県中津軽郡西目屋村田代神田２１９−１
石鳥谷,花巻市,39.4834965,141.1423662,日本、〒028-3171 岩手県花巻市石鳥谷町中寺林第７地割１７−３
高田松原,陸前高田市,39.0067558,141.6271923,日本、〒029-2204 岩手県陸前高田市気仙町土手影１８０ 高田松原津波復興祈念公園内
区界高原,宮古市,39.6416883,141.4262294,日本、〒028-2631 岩手県宮古市区界2−４３４−２
おおの,九戸郡洋野町,40.2935464,141.6473715,日本、〒028-8802 岩手県九戸郡洋野町大野 58-12-30
種山ヶ原,気仙郡住田町,39.1949919,141.3888718,日本、〒029-2311 岩手県気仙郡住田町世田米子飼沢３０−３９
いわいずみ,下閉伊郡岩泉町,39.84309469999999,141.8583388,日本、〒027-0502 岩手県下閉伊郡岩泉町乙茂乙茂９０−１
のだ,九戸郡野田村,40.11591809999999,141.8189275,日本、〒028-8201 岩手県九戸郡野田村野田第３１地割３１−３１−１
たろう,宮古市,39.7376215,141.971972,日本、〒027-0000 岩手県宮古市田老２丁目５−１
たのはた,下閉伊郡田野畑村,39.9142571,141.9026264,日本、〒028-8407 岩手県下閉伊郡田野畑村菅窪151‐6
みずさわ,奥州市,39.0942164,141.1814929,日本、〒023-0831 岩手県奥州市水沢姉体町石川原５１−３
にしね,八幡平市,39.8799845,141.0993276,日本、〒028-7111 岩手県八幡平市大更第２地割１５４−３６
白樺の里やまがた,久慈市,40.150875,141.5736126,日本、〒028-8602 岩手県久慈市山形町川井第８地割１２−１
みやもり,遠野市,39.35212509999999,141.363615,日本、〒028-0304 岩手県遠野市宮守町下宮守３０−３７−１
紫波,紫波郡紫波町,39.5586036,141.2089039,日本、〒028-3535 岩手県紫波郡紫波町遠山松原７−８
はやちね,花巻市,39.5366977,141.3404853,日本、〒028-3201 岩手県花巻市大迫町内川目第１０地割３０
やまだ,下閉伊郡山田町,39.4370769,141.97312,日本、〒028-1371 岩手県下閉伊郡山田町船越第６地割１４１
遠野風の丘,遠野市,39.3307219,141.5001594,日本、〒028-0531 岩手県遠野市綾織町新里８地割２−１
さんりく,大船渡市,39.1218297,141.7977762,日本、〒022-0101 岩手県大船渡市三陸町越喜来井戸洞９５−２７
錦秋湖,和賀郡西和賀町,39.30038950000001,140.8753678,日本、〒029-5500 岩手県和賀郡西和賀町杉名畑４４地割２６４
くずまき高原,岩手郡葛巻町,39.9845154,141.3397578,日本、〒028-5402 岩手県岩手郡葛巻町葛巻第３９地割１５９−３
石神の丘,岩手郡岩手町,39.9683386,141.2137472,日本、〒028-4307 岩手県岩手郡岩手町五日市第１０地割10−１２１−２０
雫石あねっこ,岩手郡雫石町,39.7064392,140.8746354,日本、〒020-0582 岩手県岩手郡雫石町橋場坂本118番地10
とうわ,花巻市,39.3821889,141.2220034,日本、〒028-0115 岩手県花巻市東和町安俵６区１４７−２
厳美渓,一関市,38.9463292,141.0530604,日本、〒021-0101 岩手県一関市厳美町沖野々２２０−１
おりつめ,九戸郡九戸村,40.2499232,141.4219414,日本、〒028-6506 岩手県九戸郡九戸村山屋第２地割２８−１
かわさき,一関市,38.8986059,141.2725154,日本、〒029-0202 岩手県一関市川崎町薄衣法道地４２−３
やまびこ館,宮古市,39.6489559,141.5894105,日本、〒028-2513 岩手県宮古市川内第８地割２
みやこ,宮古市,39.6389495,141.9704183,日本、〒027-0004 岩手県宮古市臨港通１−２０
三田貝分校,下閉伊郡岩泉町,39.8713505,141.5899115,日本、〒028-5641 岩手県下閉伊郡岩泉町門三田貝４７−２
くじ,久慈市,40.1898698,141.764708,日本、〒028-0056 岩手県久慈市中町２丁目５−６
釜石仙人峠,釜石市,39.2534389,141.7823549,日本、〒026-0055 岩手県釜石市甲子町第７地割１５５−４
平泉,西磐井郡平泉町,38.9917911,141.1215466,日本、〒029-4102 岩手県西磐井郡平泉町平泉伽羅楽１１２−２
むろね,一関市,38.9311981,141.4484525,日本、〒029-1201 岩手県一関市室根町折壁向山１３１−９
はなまき西南,花巻市,39.359594,141.0503249,日本、〒025-0131 岩手県花巻市轟木７−２０３
青の国ふだい,下閉伊郡普代村,40.0027707,141.8857961,日本、〒028-8332 岩手県下閉伊郡普代村第９地割銅屋５−３
いわて北三陸,久慈市,40.2218708,141.7823216,日本、〒028-0001 岩手県久慈市夏井町鳥谷第７地割3−番地 ２
七ヶ宿,刈田郡七ヶ宿町,37.9959072,140.4544655,日本、〒989-0537 宮城県刈田郡七ヶ宿町上野8‐1
津山,登米市,38.6203218,141.3253502,日本、〒986-0402 宮城県登米市津山町横山細屋２６−１
三本木,大崎市,38.5221123,140.9385219,日本、〒989-6321 宮城県大崎市三本木大豆坂６３−１３
路田里はなやま,栗原市,38.7942454,140.8442022,日本、〒987-2511 宮城県栗原市花山本沢北ノ前１１２−１
大谷海岸,気仙沼市,38.81492069999999,141.5628215,日本、〒988-0273 宮城県気仙沼市本吉町三島９
おおさと,黒川郡大郷町,38.4241304,140.9928811,日本、〒981-3521 宮城県黒川郡大郷町中村字北浦５１−６
米山,登米市,38.627191,141.1882994,日本、〒987-0321 宮城県登米市米山町西野新遠田６７
あ・ら・伊達な道の駅,大崎市,38.7074864,140.8332391,日本、〒989-6405 宮城県大崎市岩出山池月下宮苗代目４−１
林林館,登米市,38.7417523,141.3156651,日本、〒987-0901 宮城県登米市東和町米川六反３３−１
上品の郷,石巻市,38.5010779,141.2956299,日本、〒986-0132 宮城県石巻市小船越二子北下１−１
みなみかた,登米市,38.6648393,141.1606869,日本、〒987-0446 宮城県登米市南方町新高石浦１５０−１
村田,柴田郡村田町,38.1186629,140.7173244,日本、〒989-1305 宮城県柴田郡村田町村田北塩内４１
三滝堂,登米市,38.7080859,141.3280307,日本、〒987-0908 宮城県登米市東和町米谷字福平１９１−１
おおさき,大崎市,38.5798017,140.9565678,日本、〒989-6174 宮城県大崎市古川千手寺町２丁目５−５０
かくだ,角田市,37.9688425,140.8076625,日本、〒981-1504 宮城県角田市枝野北島81−１
おながわ,牡鹿郡女川町,38.4460611,141.4452256,日本、〒986-2265 宮城県牡鹿郡女川町女川２丁目66−番地
さんさん南三陸,本吉郡南三陸町,38.6790041,141.447578,日本、〒986-0752 宮城県本吉郡南三陸町志津川五日町２００−１
硯上の里おがつ,石巻市,38.5207813,141.4687829,日本、〒986-1335 宮城県石巻市雄勝町下雄勝２丁目５
たかのす,北秋田市,40.251012,140.3759844,日本、〒018-3301 秋田県北秋田市綴子大堤道下６２−１
ふたつい,能代市,40.2161581,140.2596898,日本、〒018-3102 秋田県能代市二ツ井町小繋泉５１
にしめ,由利本荘市,39.3628663,140.0145527,日本、〒018-0604 秋田県由利本荘市西目町沼田新道下１１１２−２
やたて峠,大館市,40.4208222,140.6247691,日本、〒017-0001 秋田県大館市長走陣場３１１
はちもり,山本郡八峰町,40.4217049,139.9486937,日本、〒018-2601 秋田県山本郡八峰町八森乙の水７２−４
かづの,鹿角市,40.1811646,140.7853599,日本、〒018-5201 秋田県鹿角市花輪新田町１１−４
かみおか,大仙市,39.5222993,140.3770278,日本、〒019-1702 秋田県大仙市北楢岡船戸１８７
ことおか,山本郡三種町,40.0223643,140.0806054,日本、〒018-2104 秋田県山本郡三種町鹿渡高石野１２６−１
東由利,由利本荘市,39.3014923,140.2850366,日本、〒015-0211 秋田県由利本荘市東由利老方畑田２８
かみこあに,北秋田郡上小阿仁村,40.0637558,140.2969956,日本、〒018-4421 秋田県北秋田郡上小阿仁村小沢田向川原６６−１
象潟,にかほ市,39.2201911,139.9002785,日本、〒018-0121 秋田県にかほ市象潟町大塩越７３−１
なかせん,大仙市,39.5385943,140.5333868,日本、〒014-0207 秋田県大仙市長野高畑９５−１
おがち,湯沢市,39.063488,140.4612841,日本、〒019-0205 秋田県湯沢市小野橋本９０
てんのう,潟上市,39.8569888,140.0091152,日本、〒010-0201 秋田県潟上市天王江川上谷地１０９−２
岩城,由利本荘市,39.5420927,140.0530099,日本、〒018-1301 秋田県由利本荘市岩城内道川新鶴潟１９２−４３
しょうわ,潟上市,39.8656326,140.0765188,日本、〒018-1415 秋田県潟上市昭和豊川竜毛字山ノ下1番地１
みねはま,山本郡八峰町,40.2644628,140.028128,日本、〒018-2509 秋田県山本郡八峰町峰浜沼田ホンコ谷地１４７−６ 駐車場
さんない,横手市,39.2882883,140.6252076,日本、〒019-1108 秋田県横手市山内土渕小目倉沢３４−８
おおうち,由利本荘市,39.4431099,140.091232,日本、〒018-0711 秋田県由利本荘市岩谷町西越３６
あに,北秋田市,39.9016758,140.4573513,日本、〒018-4735 秋田県北秋田市阿仁比立内家ノ後８−１
ひない,大館市,40.2196757,140.5855837,日本、〒018-5701 秋田県大館市比内町扇田新大堤下９３−１１
五城目,南秋田郡五城目町,39.9471481,140.1442104,日本、〒018-1856 秋田県南秋田郡五城目町富津内下山内上広ケ野７６−１
清水の里・鳥海郷,由利本荘市,39.1095712,140.2916697,日本、〒015-0721 秋田県由利本荘市鳥海町上笹子堺台１００
美郷,仙北郡美郷町,39.3793143,140.5676201,日本、〒019-1302 秋田県仙北郡美郷町金沢下館１２４
協和,大仙市,39.6188936,140.3621931,日本、〒019-2412 秋田県大仙市協和荒川新田表１５−２
十文字,横手市,39.2260644,140.5213,日本、〒019-0529 秋田県横手市十文字町海道下２１−４
おおがた,南秋田郡大潟村,40.01534729999999,139.9515979,日本、〒010-0445 秋田県南秋田郡大潟村西５丁目2
あきた港,秋田市,39.7528628,140.0613787,日本、〒010-0000 秋田県秋田市土崎港西１丁目９−１
こさか七滝,鹿角郡小坂町,40.3571159,140.7820777,日本、〒017-0203 秋田県鹿角郡小坂町上向藤原３５−３
大館能代空港,北秋田市,40.19562120000001,140.3722593,日本、〒018-3454 秋田県北秋田市脇神苔岱21番地144
うご,雄勝郡羽後町,39.2010554,140.4130139,日本、〒012-1131 秋田県雄勝郡羽後町西馬音内中野２００
おおゆ,鹿角市,40.2956401,140.8260872,日本、〒018-5421 秋田県鹿角市十和田大湯中谷地19
おが,男鹿市,39.8823189,139.8475983,日本、〒010-0511 秋田県男鹿市船川港船川新浜町1−１９
月山,鶴岡市,38.5879208,139.8744239,日本、〒997-0403 山形県鶴岡市越中山名平３−１
河北,西村山郡河北町,38.4130789,140.3284799,日本、〒999-3511 山形県西村山郡河北町谷地真木３３５−１
寒河江,寒河江市,38.4000791,140.2574974,日本、〒990-0523 山形県寒河江市八鍬 川原 919−8
あつみ,鶴岡市,38.5803758,139.5582332,日本、〒999-7121 山形県鶴岡市早田戸ノ浦６０６
にしかわ,西村山郡西川町,38.4362337,140.0995924,日本、〒990-0742 山形県西村山郡西川町水沢２３０４
いいで,西置賜郡飯豊町,,,
むらやま,村山市,38.4872172,140.3823957,日本、〒995-0025 山形県村山市楯岡７６３５−１
とざわ,最上郡戸沢村,38.7287945,140.1622059,日本、〒999-6402 山形県最上郡戸沢村蔵岡３７０４−１２
鳥海,飽海郡遊佐町,39.0601683,139.8760742,日本、〒999-8531 山形県飽海郡遊佐町菅里菅野３０８−１
田沢,米沢市,37.877693,139.9842371,日本、〒992-1583 山形県米沢市入田沢５７３−１９
白い森おぐに,西置賜郡小国町,38.0722618,139.731019,日本、〒999-1363 山形県西置賜郡小国町小国小坂町６１６−１
おおえ,西村山郡大江町,38.3677043,140.2132942,日本、〒990-1121 山形県西村山郡大江町藤田２１８−１
庄内みかわ,東田川郡三川町,38.7836588,139.8462166,日本、〒997-1301 山形県東田川郡三川町横山堤１７２−１
たかはた,東置賜郡高畠町,38.00675,140.2167341,日本、〒992-0302 山形県東置賜郡高畠町安久津２０７２−１
天童温泉,天童市,38.3543585,140.3872481,日本、〒994-0028 山形県天童市鍬ノ町２丁目３−４１
尾花沢,尾花沢市,38.6569138,140.363787,日本、〒999-4554 山形県尾花沢市芦沢１１９５−１
白鷹ヤナ公園,西置賜郡白鷹町,38.2177754,140.0971881,日本、〒992-0862 山形県西置賜郡白鷹町下山６６１−１
あさひまち,西村山郡朝日町,38.3274871,140.1691716,日本、〒990-1411 山形県西村山郡朝日町和合北又２７２４
しょうない,東田川郡庄内町,38.7945542,139.9848664,日本、〒999-6601 山形県東田川郡庄内町狩川外北割９７−１
川のみなと長井,長井市,38.105488,140.0434778,日本、〒993-0003 山形県長井市東町２−５０
米沢,米沢市,37.9236971,140.1363692,日本、〒992-0117 山形県米沢市川井1039―1
もがみ,最上町,38.8238115,140.4599565,日本、〒999-6212 山形県最上郡最上町志茂
やまがた蔵王,山形市,38.1902263,140.3122314,日本、〒990-2307 山形県山形市表蔵王６８
つちゆ,福島市,37.6550794,140.3342993,日本、〒960-1243 福島県福島市松川町水原南沢４１−２
川俣,伊達郡川俣町,37.6674403,140.5768421,日本、〒960-1406 福島県伊達郡川俣町鶴沢東１３−１
たじま,南会津郡南会津町,37.0967511,139.724629,日本、〒967-0014 福島県南会津郡南会津町糸沢男鹿沼原３２４２−６
安達,二本松市,37.63537669999999,140.4833659,日本、〒969-1511 福島県二本松市下川崎上平３３−１
喜多の郷,喜多方市,37.7018992,139.8784054,日本、〒966-0901 福島県喜多方市松山町鳥見山三町歩 松山町鳥見山三町歩５５９８−１
裏磐梯,耶麻郡北塩原村,37.6649681,140.0435452,日本、〒966-0401 福島県耶麻郡北塩原村檜原南黄連沢山１１５７
ならは,双葉郡楢葉町,37.2502744,140.9977799,日本、〒979-0513 福島県双葉郡楢葉町山田岡大堤入２２−１
そうま,相馬市,37.7612244,140.9478202,日本、〒979-2522 福島県相馬市日下石金谷７４−１
はなわ,東白川郡塙町,36.9502706,140.4143514,日本、〒963-5405 福島県東白川郡塙町塙桜木町３８８−１
会津柳津,河沼郡柳津町,37.5274397,139.7217767,日本、〒969-7201 福島県河沼郡柳津町柳津下平乙１８１−１
ふくしま東和,二本松市,37.5702147,140.5777324,日本、〒964-0111 福島県二本松市太田下田２−３
にしあいづ,耶麻郡西会津町,37.58548990000001,139.64328,日本、〒969-4406 福島県耶麻郡西会津町野沢下條乙１９６９−２６
尾瀬街道みしま宿,大沼郡三島町,37.4712564,139.6722545,日本、〒969-7515 福島県大沼郡三島町川井天屋原６１０
たまかわ,石川郡玉川村,37.2226492,140.4186037,日本、〒963-6311 福島県石川郡玉川村岩法寺宮ノ前１４０−２
羽鳥湖高原,岩瀬郡天栄村,37.2479596,140.0420096,日本、〒962-0622 福島県岩瀬郡天栄村田良尾芝草１−３５５２
南相馬,南相馬市,37.6355593,140.9836037,日本、〒975-0033 福島県南相馬市原町区高見町２丁目３０−１
しもごう,南会津郡下郷町,37.21414,139.9315639,日本、〒969-5335 福島県南会津郡下郷町南倉沢 字木賊844-188
ひらた,石川郡平田村,37.2500262,140.5598254,日本、〒963-8202 福島県石川郡平田村上蓬田横森後１６０
よつくら港,いわき市,37.107552,140.9934615,日本、〒979-0201 福島県いわき市四倉町五丁目２１８−１
ばんだい,耶麻郡磐梯町,37.5627118,139.986723,日本、〒969-3301 福島県耶麻郡磐梯町磐梯十王堂38−番地
ふるどの,石川郡古殿町,37.1184645,140.5290856,日本、〒963-8306 福島県石川郡古殿町田口平舘２５
番屋,南会津郡南会津町,37.0673586,139.6192671,日本、〒967-0324 福島県南会津郡南会津町番屋４
季の里天栄,岩瀬郡天栄村,37.2431989,140.2440829,日本、〒962-0504 福島県岩瀬郡天栄村大里天房41−２
きらら２８９,南会津郡南会津町,37.2219393,139.5427741,日本、〒967-0611 福島県南会津郡南会津町山口橋尻１
奥会津かねやま,大沼郡金山町,37.4987134,139.5134723,日本、〒968-0006 福島県大沼郡金山町中川上居平９４９−８
さくらの郷,二本松市,37.5346154,140.5901561,日本、〒964-0301 福島県二本松市東新殿平石田１２−２
あいづ　湯川・会津坂下,河沼郡湯川村,37.5572588,139.8622218,日本、〒969-3555 福島県河沼郡湯川村佐野目五丁ノ目７８−１
からむし織の里しょうわ,大沼郡昭和村,,,
猪苗代,耶麻郡猪苗代町,37.5376394,140.1073535,日本、〒969-3132 福島県耶麻郡猪苗代町堅田五百苅１
国見　あつかしの郷,伊達郡国見町,37.8725678,140.5463157,日本、〒969-1761 福島県伊達郡国見町藤田日渡二18−１
いいたて村の道の駅までい館,相馬郡飯舘村,37.6982991,140.7377755,日本、〒960-1802 福島県相馬郡飯舘村深谷深谷 前12-1
尾瀬檜枝岐,南会津郡檜枝岐村,37.0338763,139.3969144,日本、〒967-0527 福島県南会津郡檜枝岐村見通１１３６−１
伊達の郷りょうぜん,伊達市,37.7656942,140.586001,日本、〒960-0808 福島県伊達市霊山町下小国 字桜町３−１
なみえ,双葉郡浪江町,37.4963015,140.9994116,日本、〒979-1513 福島県双葉郡浪江町幾世橋知命寺６０
ふくしま,福島市,37.8049296,140.4112398,日本、〒960-0251 福島県福島市大笹生月崎１−１
かつら,東茨城郡城里町,36.5449031,140.3329038,日本、〒311-4341 茨城県東茨城郡城里町御前山３７
みわ,常陸大宮市,36.6558654,140.2796876,日本、〒319-2603 茨城県常陸大宮市鷲子２７２
さとみ,常陸太田市,36.705793,140.5097385,日本、〒311-0507 茨城県常陸太田市小菅町６９４−３
さかい,猿島郡境町,36.1081139,139.7951926,日本、〒306-0433 茨城県猿島郡境町１３４１−１
奥久慈だいご,久慈郡大子町,36.7681182,140.3593735,日本、〒319-3551 茨城県久慈郡大子町池田２８３０−１
しもつま,下妻市,36.2157564,139.9864107,日本、〒304-0016 茨城県下妻市数須１４０
たまつくり,行方市,36.1087457,140.4256481,日本、〒311-3512 茨城県行方市玉造甲１９６３−５
いたこ,潮来市,35.946047,140.589332,日本、〒311-2416 茨城県潮来市前川１３２６−１
ごか,猿島郡五霞町,36.0953711,139.7581429,日本、〒306-0308 茨城県猿島郡五霞町ごかみらい１３−３
まくらがの里　こが,古河市,36.1914306,139.7897323,日本、〒306-0111 茨城県古河市大和田２６２３
日立おさかなセンター,日立市,36.4925118,140.6154646,日本、〒319-1223 茨城県日立市みなと町５７７９−２４
常陸大宮,常陸大宮市,36.5970942,140.4102556,日本、〒319-2211 茨城県常陸大宮市岩崎７１７−１
ひたちおおた,常陸太田市,36.5106576,140.5252949,日本、〒313-0044 茨城県常陸太田市下河合町1016番１
グランテラス筑西,筑西市,36.3251621,139.9956703,日本、〒308-0801 茨城県筑西市川澄１８５０
かさま,笠間市,36.3559329,140.2747226,日本、〒309-1621 茨城県笠間市手越２２番地１
常総,常総市,36.0235412,139.9936327,日本、〒300-2508 茨城県常総市 むすびまち1番地
もてぎ,芳賀郡茂木町,36.5282964,140.1731592,日本、〒321-3531 栃木県芳賀郡茂木町茂木１０９０−１
にのみや,真岡市,36.3673519,139.9652513,日本、〒321-4521 栃木県真岡市久下田２２０４−１
湯の香しおばら,那須塩原市,36.9557816,139.8991762,日本、〒329-2801 栃木県那須塩原市関谷４４２
那須高原友愛の森,那須郡那須町,37.0408592,140.0136724,日本、〒325-0303 栃木県那須郡那須町高久乙５９３−８
明治の森・黒磯,那須塩原市,36.9986469,140.0067556,日本、〒325-0103 栃木県那須塩原市青木２７ 27番地
ばとう,那須郡那珂川町,36.7475193,140.1501048,日本、〒324-0617 栃木県那須郡那珂川町北向田１８１−２
東山道伊王野,那須郡那須町,36.9545177,140.157376,日本、〒329-3436 栃木県那須郡那須町伊王野４５９
きつれがわ,さくら市,36.7158228,140.0326226,日本、〒329-1412 栃木県さくら市喜連川４１４５−１０
どまんなか　たぬま,佐野市,36.3437761,139.572071,日本、〒327-0313 栃木県佐野市吉水町３６６−２
はが,芳賀郡芳賀町,36.552443,140.0581997,日本、〒321-3304 栃木県芳賀郡芳賀町祖母井８４２−１
那須与一の郷,大田原市,36.8633862,140.0868991,日本、〒324-0012 栃木県大田原市南金丸１５８４−６
那須野が原博物館,那須塩原市,36.9010378,139.966814,"1番地 ５丁目, 三島 那須塩原市 栃木県 329-2752 日本"
みかも,栃木市,36.296793,139.6256448,日本、〒323-1107 栃木県栃木市藤岡町大田和６７８
思川,小山市,36.3082071,139.7611549,日本、〒323-0065 栃木県小山市下国府塚２５−１
湯西川,日光市,36.92951610000001,139.6883165,日本、〒321-2603 栃木県日光市西川４７８−１
みぶ,下都賀郡壬生町,36.4547768,139.806214,日本、〒321-0211 栃木県下都賀郡壬生町国谷１８７０−２
にしかた,栃木市,36.4669999,139.7429891,日本、〒322-0604 栃木県栃木市西方町元３６９−１
しもつけ,下野市,36.397226,139.883766,日本、〒329-0431 栃木県下野市薬師寺３７２０−１
やいた,矢板市,36.8057394,139.9215935,日本、〒329-2165 栃木県矢板市矢板１１４−１
湧水の郷しおや,塩谷郡塩谷町,36.7647114,139.7807994,日本、〒329-2441 栃木県塩谷郡塩谷町船生３７３３−１
うつのみや　ろまんちっく村,宇都宮市,36.632871,139.829339,日本、〒321-2118 栃木県宇都宮市新里町丙２５４
サシバの里いちかい,芳賀郡市貝町,36.5425479,140.0999688,日本、〒321-3423 栃木県芳賀郡市貝町市塙１２７０
日光,日光市,36.7250162,139.6880223,日本、〒321-1261 栃木県日光市今市７１９−１
ましこ,芳賀郡益子町,36.4312713,140.0723269,日本、〒321-4225 栃木県芳賀郡益子町長堤２２７１
たかねざわ　元気あっぷむら,塩谷郡高根沢町,36.6326535,140.0531837,日本、〒329-1212 栃木県塩谷郡高根沢町上柏崎５８８−１
上野,多野郡上野村,36.0701511,138.7819214,日本、〒370-1613 群馬県多野郡上野村勝山甲131番地
ぐりーんふらわー牧場・大胡,前橋市,36.4590519,139.136401,日本、〒371-0235 群馬県前橋市滝窪町１３６９−１
六合,吾妻郡中之条町,36.6075632,138.6385163,日本、〒377-1704 群馬県吾妻郡中之条町小雨２９
おのこ,渋川市,36.5481409,138.9523076,日本、〒377-0312 群馬県渋川市小野子１９８０
上州おにし,藤岡市,36.14307300000001,139.0404019,日本、〒370-1402 群馬県藤岡市譲原1089 2
川場田園プラザ,利根郡川場村,36.686461,139.1079643,日本、〒378-0111 群馬県利根郡川場村萩室３８５
みなかみ水紀行館,利根郡みなかみ町,36.7645268,138.9677064,日本、〒379-1617 群馬県利根郡みなかみ町湯原１６８１−１
白沢,沼田市,36.6616285,139.1201864,日本、〒378-0125 群馬県沼田市白沢町 平出 １２９７
草津運動茶屋公園,吾妻郡草津町,36.614652,138.5906459,日本、〒377-1711 群馬県吾妻郡草津町草津２−１
くろほね・やまびこ,桐生市,36.4911318,139.2708762,日本、〒376-0144 群馬県桐生市黒保根町下田沢９１−４
ららん藤岡,藤岡市,36.2723642,139.0727244,日本、〒375-0005 群馬県藤岡市中１１３１−８
こもち,渋川市,36.51534669999999,139.0161453,日本、〒377-0204 群馬県渋川市白井２３１８−１
月夜野矢瀬親水公園,利根郡みなかみ町,36.6975807,138.9812687,日本、〒379-1313 群馬県利根郡みなかみ町月夜野２９３６
みょうぎ,富岡市,36.2996438,138.7660827,日本、〒379-0203 群馬県富岡市妙義町岳３２２−７
万葉の里,多野郡神流町,36.1089365,138.8979096,日本、〒370-1506 群馬県多野郡神流町黒田７４２−１
しもにた,甘楽郡下仁田町,36.2306216,138.8205748,日本、〒370-2603 群馬県甘楽郡下仁田町馬山３７６６−１１
富弘美術館,みどり市,36.5525649,139.3727917,日本、〒376-0302 群馬県みどり市東町草木８６
たくみの里,利根郡みなかみ町,36.69674639999999,138.908064,日本、〒379-1418 群馬県利根郡みなかみ町須川８４７
霊山たけやま,吾妻郡中之条町,36.6086838,138.8297984,日本、〒377-0432 群馬県吾妻郡中之条町五反田２２２−１
よしおか温泉,北群馬郡吉岡町,36.441648,139.0351992,日本、〒370-3601 群馬県北群馬郡吉岡町漆原２００４
赤城の恵,前橋市,36.424881,139.1291691,日本、〒371-0001 群馬県前橋市荻窪町４３７−１１
甘楽,甘楽郡甘楽町,36.23377310000001,138.9166332,日本、〒370-2202 群馬県甘楽郡甘楽町小幡４４４−１
あぐりーむ昭和,利根郡昭和村,36.6127468,139.068729,日本、〒379-1204 群馬県利根郡昭和村森下２４０６−２
オアシスなんもく,甘楽郡南牧村,36.1781785,138.7415385,日本、〒370-2803 群馬県甘楽郡南牧村千原３−１
ふじみ,前橋市,36.4693142,139.094373,日本、〒371-0105 群馬県前橋市富士見町石井１５６９−１
おおた,太田市,36.264582,139.2961451,日本、〒370-0421 群馬県太田市粕川町７０１−１
八ッ場ふるさと館,吾妻郡長野原町,36.5475297,138.6842127,日本、〒377-1309 群馬県吾妻郡長野原町林１５６７−４
中山盆地,吾妻郡高山村,36.6224673,138.9551428,日本、〒377-0702 群馬県吾妻郡高山村中山２３５７−１
くらぶち小栗の里,高崎市,36.4245707,138.7931506,日本、〒370-3402 群馬県高崎市倉渕町三ノ倉２９６−１
あがつま峡,吾妻郡東吾妻町,36.5703066,138.7355758,日本、〒377-0813 群馬県吾妻郡東吾妻町三島６４４１
玉村宿,佐波郡玉村町,36.3082017,139.0944618,日本、〒370-1133 群馬県佐波郡玉村町上新田６０４−１
尾瀬かたしな,利根郡片品村,36.7729243,139.2257067,日本、〒378-0415 群馬県利根郡片品村鎌田3967番地１
まえばし赤城,前橋市,36.4397012,139.0530662,日本、〒371-0048 群馬県前橋市田口町36番地
あらかわ,秩父市,35.9544112,139.0126467,日本、〒369-1803 埼玉県秩父市荒川日野５３８−１
おがわまち,比企郡小川町,36.05244020000001,139.2812518,日本、〒355-0321 埼玉県比企郡小川町小川１２２０
川口・あんぎょう,川口市,35.848058,139.7657932,日本、〒334-0058 埼玉県川口市安行領家８４４−２
大滝温泉,秩父市,35.949896,138.9377397,日本、〒369-1901 埼玉県秩父市大滝４２７７−２
おかべ,深谷市,36.21858940000001,139.241146,日本、〒369-0201 埼玉県深谷市岡６８８−１
龍勢会館,秩父市,36.0490017,139.0400894,日本、〒369-1501 埼玉県秩父市吉田久長３２
童謡のふる里おおとね,加須市,36.1702981,139.6451694,日本、〒349-1151 埼玉県加須市佐波２５８−１
はなぞの,深谷市,36.121855,139.2273351,日本、〒369-1246 埼玉県深谷市小前田４５８−１
両神温泉薬師の湯,秩父郡小鹿野町,36.0046213,138.9712416,日本、〒368-0201 埼玉県秩父郡小鹿野町両神薄２３８０
かわもと,深谷市,36.1515241,139.2890941,日本、〒369-1101 埼玉県深谷市長在家１２７９−２
めぬま,熊谷市,36.214961,139.3699556,日本、〒360-0203 埼玉県熊谷市弥藤吾７２０
ちちぶ,秩父市,35.9974393,139.089409,日本、〒368-0023 埼玉県秩父市大宮４６２５
アグリパークゆめすぎと,北葛飾郡杉戸町,36.02498509999999,139.7690018,日本、〒345-0014 埼玉県北葛飾郡杉戸町才羽８２３−２
果樹公園あしがくぼ,秩父郡横瀬町,35.9765926,139.1346825,日本、〒368-0071 埼玉県秩父郡横瀬町芦ケ久保１９１５−６
いちごの里　よしみ,比企郡吉見町,36.0367528,139.4574445,日本、〒355-0137 埼玉県比企郡吉見町久保田１７３７
かぞわたらせ,加須市,36.2106686,139.662096,日本、〒349-1202 埼玉県加須市小野袋１７４５−１
庄和,春日部市,35.9969699,139.7948262,日本、〒344-0121 埼玉県春日部市上柳９９５
はにゅう,羽生市,36.188736,139.5107802,日本、〒348-0041 埼玉県羽生市上新郷７０６６
みなの,秩父郡皆野町,36.0769798,139.1096227,日本、〒369-1412 埼玉県秩父郡皆野町皆野３２３６−３５
和紙の里ひがしちちぶ,秩父郡東秩父村,36.0519174,139.2040146,日本、〒355-0375 埼玉県秩父郡東秩父村御堂４４１
とみうら,南房総市,35.0376474,139.837172,日本、〒299-2416 千葉県南房総市富浦町青木１２３−１
三芳村,南房総市,35.0341705,139.8948637,日本、〒294-0814 千葉県南房総市川田８２−２
やちよ,八千代市,35.7581886,140.1066553,日本、〒276-0015 千葉県八千代市米本４９０５−１
きょなん,安房郡鋸南町,35.1280889,139.8367522,日本、〒299-1908 千葉県安房郡鋸南町吉浜５１７−１
鴨川オーシャンパーク,鴨川市,35.0643096,140.077389,日本、〒299-2865 千葉県鴨川市江見太夫崎22
ローズマリー公園,南房総市,35.008317,139.9753292,日本、〒299-2521 千葉県南房総市白子１５０１
ふれあいパーク・きみつ,君津市,35.1984902,140.0695975,日本、〒292-0526 千葉県君津市笹１７６６−３
しょうなん,柏市,35.8572423,140.0233172,日本、〒277-0911 千葉県柏市箕輪新田５９−２
たけゆらの里おおたき,夷隅郡大多喜町,35.2549777,140.2584715,日本、〒298-0256 千葉県夷隅郡大多喜町石神８５５
多古,香取郡多古町,35.7314015,140.4752644,日本、〒289-2241 千葉県香取郡多古町多古１０６９−１
あずの里いちはら,市原市,35.4638907,140.1096708,日本、〒290-0251 千葉県市原市浅井小向４９２−１
くりもと,香取市,35.8059964,140.470105,日本、〒287-0105 千葉県香取市沢１３７２−１
ちくら・潮風王国,南房総市,34.93018989999999,139.9534094,日本、〒295-0025 千葉県南房総市千倉町千田１０５１
富楽里とみやま,南房総市,35.1009584,139.8552687,日本、〒299-2214 千葉県南房総市二部２２１１
おおつの里,南房総市,35.0578497,139.860376,日本、〒299-2412 千葉県南房総市富浦町大津３２０
オライはすぬま,山武市,35.6017369,140.5016336,日本、〒289-1806 千葉県山武市蓮沼ハ４８２６
ながら,長生郡長柄町,35.4574183,140.2068809,日本、〒297-0233 千葉県長生郡長柄町六地蔵138ｰ1
むつざわスマートウェルネスタウン・道の駅・つどいの郷,長生郡睦沢町,35.3509384,140.3021743,日本、〒299-4422 千葉県長生郡睦沢町森2−１
白浜野島崎,南房総市,34.9062795,139.8773274,日本、〒295-0103 千葉県南房総市白浜町滝口９２４０
南房パラダイス,館山市,34.9377539,139.8227802,日本、〒294-0224 千葉県館山市藤原１４９７−１４９７
水の郷さわら,香取市,35.89568879999999,140.5069546,日本、〒287-0003 千葉県香取市イ3981番地2
風和里しばやま,山武郡芝山町,35.6950863,140.410107,日本、〒289-1624 千葉県山武郡芝山町小池２５６８
和田浦　WA・O！,南房総市,35.0426137,140.0206502,日本、〒299-2703 千葉県南房総市和田町仁我浦２４３
発酵の里こうざき,香取郡神崎町,35.9005824,140.3790366,日本、〒289-0224 千葉県香取郡神崎町松崎８５５
季楽里あさひ,旭市,35.7177642,140.6755676,日本、〒289-2511 千葉県旭市イ５２３８
保田小学校,安房郡鋸南町,35.1435183,139.8437294,日本、〒299-1902 千葉県安房郡鋸南町保田７２４
みのりの郷東金,東金市,35.57738820000001,140.3832928,日本、〒283-0005 千葉県東金市田間１３００−３
木更津 うまくたの里,木更津市,35.360161,140.0524404,日本、〒292-0205 千葉県木更津市下郡１３６９−１
いちかわ,市川市,35.7498231,139.920133,日本、〒272-0834 千葉県市川市国分６丁目１０−１
グリーンファーム館山,館山市,34.9994064,139.866466,日本、〒294-0036 千葉県館山市館山１５６４−１
八王子滝山,八王子市,35.6867124,139.3414876,日本、〒192-0011 東京都八王子市滝山町１丁目５９２−２
箱根峠,足柄下郡箱根町,35.1867134,139.0157129,日本、〒250-0521 神奈川県足柄下郡箱根町箱根３８１−２２
山北,足柄上郡山北町,35.379772,139.0313544,日本、〒258-0123 神奈川県足柄上郡山北町湯触３１７
清川,愛甲郡清川村,35.4825439,139.2771754,日本、〒243-0112 神奈川県愛甲郡清川村煤ヶ谷２１２９
足柄・金太郎のふるさと,南足柄市,35.326156,139.1184123,日本、〒250-0111 神奈川県南足柄市竹松1117番地1
豊栄,新潟市,37.9571358,139.2218882,日本、〒950-3304 新潟県新潟市北区木崎３６４４ 乙
加治川,新発田市,38.0023204,139.3724582,日本、〒959-2411 新潟県新発田市横岡１１４７
神林,村上市,38.1722324,139.4616141,日本、〒959-3423 新潟県村上市九日市８０９
朝日,村上市,38.2823606,139.52239,日本、〒958-0261 新潟県村上市猿沢１２１２
新潟ふるさと村,新潟市,37.8681933,139.0191566,日本、〒950-1101 新潟県新潟市西区山田２３０７
能生,糸魚川市,37.1136573,138.0037145,日本、〒949-1351 新潟県糸魚川市能生小泊３５９６−２
みかわ,東蒲原郡阿賀町,37.7177406,139.3601455,日本、〒959-4627 新潟県東蒲原郡阿賀町岩谷２８６５
関川,岩船郡関川村,38.0823385,139.5740409,日本、〒959-3264 新潟県岩船郡関川村上関１２５２−１
ちぢみの里おぢや,小千谷市,37.3237139,138.8161187,日本、〒947-0003 新潟県小千谷市薭生甲１６７０−１
阿賀の里,東蒲原郡阿賀町,37.7372351,139.3049894,日本、〒959-4636 新潟県東蒲原郡阿賀町石間４３０１
笹川流れ,村上市,38.3752022,139.4585571,日本、〒959-3665 新潟県村上市桑川８９１−１
越後出雲崎　天領の里,三島郡出雲崎町,37.5391858,138.6793768,日本、〒949-4308 新潟県三島郡出雲崎町尼瀬６−５７
胎内,胎内市,38.0634101,139.4529934,日本、〒959-2806 新潟県胎内市下赤谷３８７−１
ゆのたに,魚沼市,37.2239474,138.9827263,日本、〒946-0075 新潟県魚沼市吉田１１４８
良寛の里　わしま,長岡市,37.5807881,138.7631834,日本、〒949-4525 新潟県長岡市島崎５５５１
まつだいふるさと会館,十日町市,37.1325637,138.6138617,日本、〒942-1526 新潟県十日町市松代３８１６−１
越後市振の関,糸魚川市,36.9799675,137.64437,日本、〒949-0111 新潟県糸魚川市市振１０３５−５０
クロス１０十日町,十日町市,37.1384562,138.7612922,日本、〒948-0003 新潟県十日町市本町六の１丁目７１−２６
漢学の里しただ,三条市,37.5417597,139.1019543,日本、〒955-0131 新潟県三条市庭月４５１−１
風の丘米山,柏崎市,37.3465157,138.4899482,日本、〒949-3661 新潟県柏崎市青海川１７５−１
いりひろせ,魚沼市,37.3558996,139.0573379,日本、〒946-0305 新潟県魚沼市大栃山３５６−２
西山ふるさと公苑,柏崎市,37.4499341,138.6615439,日本、〒949-4135 新潟県柏崎市西山町坂田７１７−４
あらい,妙高市,37.0260674,138.2259705,日本、〒944-0075 新潟県妙高市猪野山５８−１
Ｒ２９０とちお,長岡市,37.4595997,139.0072657,日本、〒940-0233 新潟県長岡市栃尾宮沢１７６４ 道の駅Ｒ２９０とちお
あいぽーと佐渡,佐渡市,38.0838575,138.4361858,日本、〒952-0011 新潟県佐渡市両津夷３８４−１１
親不知ピアパーク,糸魚川市,37.0038956,137.7316132,日本、〒949-0308 新潟県糸魚川市外波９０３−１
瀬替えの郷せんだ,十日町市,37.1978512,138.6743452,日本、〒948-0214 新潟県十日町市中仙田８２６
雪のふるさと　やすづか,上越市,37.095854,138.470103,日本、〒942-0531 新潟県上越市安塚区樽田１４１
じょんのびの里高柳,柏崎市,37.2130191,138.6334084,日本、〒945-1505 新潟県柏崎市高柳町高尾１０−１
花夢里にいつ,新潟市,37.7918381,139.0791949,日本、〒956-0055 新潟県新潟市秋葉区川根４３８
国上,燕市,37.662836,138.8252222,日本、〒959-0136 新潟県燕市国上５８６６−１
越後川口,長岡市,37.2608096,138.8676466,日本、〒949-7503 新潟県長岡市川口中山８４−２
よしかわ杜氏の郷,上越市,37.2042936,138.5190267,日本、〒949-3449 新潟県上越市吉川区川谷
うみてらす名立,上越市,37.1632474,138.0863767,日本、〒949-1602 新潟県上越市名立区名立大町4280ｰ 1
南魚沼,南魚沼市,37.0037364,138.819544,日本、〒949-6363 新潟県南魚沼市下一日市８５５
パティオにいがた,見附市,37.5476609,138.8854837,日本、〒954-0111 新潟県見附市今町１丁目３３５８
みつまた,南魚沼郡湯沢町,36.899957,138.7769889,日本、〒949-6211 新潟県南魚沼郡湯沢町三俣１０００
燕三条地場産センター,三条市,37.6495411,138.9332269,日本、〒955-0092 新潟県三条市須頃１丁目１７
庭園の郷 保内,三条市,37.6469074,139.0264354,日本、〒955-0021 新潟県三条市下保内４０３５
たがみ,南蒲原郡田上町,37.6990003,139.0590103,日本、〒959-1503 新潟県南蒲原郡田上町原ケ崎新田3072ｰ1
ながおか花火館,長岡市,37.4553103,138.8041232,日本、〒940-2121 新潟県長岡市喜多町７０７
あがの,阿賀野市,37.83687640000001,139.1650218,日本、〒959-2126 新潟県阿賀野市窪川原５５３−２
細入,富山市,36.4892564,137.2379499,日本、〒939-2186 富山県富山市片掛３−５
砺波,砺波市,36.6414402,136.9601088,日本、〒939-1388 富山県砺波市宮沢町３−９
上平,南砺市,36.3773601,136.8710996,日本、〒939-1977 富山県南砺市西赤尾町７２−１
利賀,南砺市,36.4576545,137.0263805,日本、〒939-2507 富山県南砺市利賀村１７１
井波,南砺市,36.5622173,136.9776908,日本、〒932-0226 富山県南砺市北川７３０
福光,南砺市,36.5659266,136.8621294,日本、〒939-1625 富山県南砺市中ノ江２１
たいら,南砺市,36.4452927,136.9743886,日本、〒939-1905 富山県南砺市東中江２１５
庄川,砺波市,36.5743678,136.9800254,日本、〒932-0315 富山県砺波市庄川町示野４３７
うなづき,黒部市,36.8607612,137.5422339,日本、〒938-0861 富山県黒部市宇奈月町下立６８７
カモンパーク新湊,射水市,36.7520586,137.0844402,日本、〒934-0049 富山県射水市鏡宮２９６
ウェーブパークなめりかわ,滑川市,36.7740024,137.3444267,日本、〒936-0019 富山県滑川市中川原４１０
氷見,氷見市,36.8639255,136.9863525,日本、〒935-0004 富山県氷見市北大町２５
万葉の里　高岡,高岡市,36.7366919,136.9693331,日本、〒933-0317 富山県高岡市蜂ケ島１３１−１
メルヘンおやべ,小矢部市,36.689363,136.8774235,日本、〒932-0022 富山県小矢部市桜町１５３５−１
雨晴,高岡市,36.8149522,137.0414829,日本、〒933-0133 富山県高岡市太田24番地74
KOKOくろべ,黒部市,36.8776679,137.4283819,日本、〒938-0041 富山県黒部市堀切925番地1
千枚田ポケットパーク,輪島市,37.4239042,136.9976185,日本、〒928-0256 石川県輪島市白米町ハ９９−５
高松,かほく市,36.7858788,136.723486,日本、〒929-1211 石川県かほく市二ツ屋フ１３
いおり,七尾市,37.0348836,137.0463336,日本、〒926-0366 石川県七尾市庵町３−１
桜峠,鳳珠郡能登町,37.33138539999999,137.0111904,日本、〒928-0334 石川県鳳珠郡能登町当目２−２４−２４
しらやまさん,能美市,36.4367784,136.6304983,日本、〒923-1208 石川県能美市和佐谷町２００
なかじまロマン峠,七尾市,37.1218912,136.858789,日本、〒929-2222 石川県七尾市中島町中島 ニ部1-19
赤神,輪島市,37.2481019,136.7099334,日本、〒927-2345 石川県輪島市門前町門前字赤神壱１１０
とぎ海街道,羽咋郡志賀町,37.1407136,136.7260609,日本、〒925-0447 石川県羽咋郡志賀町富来領家町２−１１
輪島,輪島市,37.3938369,136.9071112,日本、〒928-0001 石川県輪島市河井町 20部１−１３１
ころ柿の里しか,羽咋郡志賀町,37.0102237,136.7808956,日本、〒925-0154 石川県羽咋郡志賀町末吉１０
瀬女,白山市,36.2876194,136.6497223,日本、〒920-2331 石川県白山市瀬戸１６３−１
一向一揆の里,白山市,36.3604804,136.5990553,日本、〒920-2368 石川県白山市出合町甲３６
のと里山空港,輪島市,37.2948903,136.956608,日本、〒929-2372 石川県輪島市三井町洲衛１０部１１−１
倶利伽羅　源平の郷,河北郡津幡町,36.663225,136.767576,日本、〒929-0426 石川県河北郡津幡町竹橋西２３９−１４
山中温泉　ゆけむり健康村,加賀市,36.2384468,136.368269,日本、〒922-0128 石川県加賀市山中温泉こおろぎ町イ１２−１
のとじま,七尾市,37.1372889,136.998297,日本、〒926-0211 石川県七尾市能登島向田町１２２−１４
すず塩田村,珠洲市,37.4363883,137.2605239,日本、〒927-1324 石川県珠洲市清水町１−５８−１
内灘サンセットパーク,河北郡内灘町,36.6592926,136.6488809,日本、〒920-0265 石川県河北郡内灘町大学１丁目４−１
能登食祭市場,七尾市,37.0492659,136.9689581,日本、〒926-0041 石川県七尾市府中町員外１３−１
こまつ木場潟,小松市,36.369425,136.4627909,日本、〒923-0843 石川県小松市蓮代寺町２−２
狼煙,珠洲市,37.5255442,137.3231429,日本、〒927-1441 石川県珠洲市狼煙町テ 部１１
すずなり,珠洲市,37.4401242,137.2693033,日本、〒927-1213 石川県珠洲市野々江町 シの部 15
織姫の里なかのと,鹿島郡中能登町,36.959439,136.9148939,日本、〒929-1721 石川県鹿島郡中能登町井田部１０−１
あなみず,鳳珠郡穴水町,37.2282533,136.9045811,日本、〒927-0026 石川県鳳珠郡穴水町大町チ４１−６
のと千里浜,羽咋市,36.886121,136.7686449,日本、〒925-0054 石川県羽咋市千里浜町タ１−６２
めぐみ白山,白山市,36.5008501,136.5472819,日本、〒924-0033 石川県白山市宮丸町２１８３
河野,南条郡南越前町,35.79665019999999,136.0923621,日本、〒915-1103 福井県南条郡南越前町大谷８６−１−６
九頭竜,大野市,35.9042709,136.6614438,日本、〒912-0205 福井県大野市朝日２６−３０−１
パークイン丹生ヶ丘,丹生郡越前町,35.9694794,136.1192435,日本、〒916-0142 福井県丹生郡越前町上川去４５−１−７
名田庄,大飯郡おおい町,35.3945067,135.5843287,日本、〒917-0375 福井県大飯郡おおい町名田庄納田終109‐4‐1
みくに,坂井市,36.190066,136.1388244,日本、〒913-0032 福井県坂井市三国町山岸６７−３−１
若狭熊川宿,三方上中郡若狭町,35.4410155,135.9058904,日本、〒919-1532 福井県三方上中郡若狭町熊川１１−１−１
さかい,坂井市,36.1709227,136.2218192,日本、〒919-0521 福井県坂井市坂井町 蔵垣内 ３４ −１４−１
シーサイド高浜,大飯郡高浜町,35.4890159,135.5960985,日本、〒919-2205 福井県大飯郡高浜町下車持４６−１０
若狭おばま,小浜市,35.4919996,135.763187,日本、〒917-0024 福井県小浜市和久里２４−４５−２
うみんぴあ大飯,大飯郡おおい町,35.4812751,135.6299085,日本、〒919-2107 福井県大飯郡おおい町成海１−１−２
西山公園,鯖江市,35.9487721,136.1806542,日本、〒916-0027 福井県鯖江市桜町３丁目９−９５０
越前,丹生郡越前町,35.9195027,135.996951,日本、〒916-0422 福井県丹生郡越前町厨７１−３３５−１
三方五湖,三方上中郡若狭町,35.5598231,135.8940067,日本、〒919-1331 福井県三方上中郡若狭町鳥浜１２２−３１−１
一乗谷あさくら水の駅,福井市,36.0203317,136.2946022,日本、〒910-2151 福井県福井市安波賀中島町１−１−１
禅の里,吉田郡永平寺町,36.0923343,136.2990788,日本、〒910-1312 福井県吉田郡永平寺町清水２−２１−１
恐竜渓谷かつやま,勝山市,36.0710912,136.4791035,日本、〒911-0044 福井県勝山市荒土町松ヶ崎１−１７
越前おおの荒島の郷,大野市,35.9717444,136.5526415,日本、〒912-0823 福井県大野市蕨生１３７−２１−１
南えちぜん山海里,南条郡南越前町,35.8304511,136.2022929,日本、〒919-0203 福井県南条郡南越前町牧谷３９−２−２
越前たけふ,越前市,35.8950423,136.1981522,日本、〒915-0042 福井県越前市大屋町３８−５−１
蓮如の里あわら,あわら市,36.2887309,136.2514626,日本、〒922-0679 福井県あわら市吉崎１丁目８０１
若狭美浜はまびより,三方郡美浜町,35.6045684,135.9354069,日本、〒919-1122 福井県三方郡美浜町松原３５−１５−１
とみざわ,南巨摩郡南部町,35.241971,138.4847099,日本、〒409-2102 山梨県南巨摩郡南部町福士２８５０７−１
甲斐大和,甲州市,35.63533530000001,138.7930524,日本、〒409-1203 山梨県甲州市大和町初鹿野２２４８
なるさわ,南都留郡鳴沢村,35.480071,138.70133,日本、〒401-0320 山梨県南都留郡鳴沢村鳴沢８５３２−６３
みとみ,山梨市,35.8586952,138.7562912,日本、〒404-0201 山梨県山梨市三富川浦１８２２−１
しもべ,南巨摩郡身延町,35.4696667,138.5136143,日本、〒409-3106 山梨県南巨摩郡身延町古関４３２１
とよとみ,中央市,35.5846622,138.5455342,日本、〒400-1514 山梨県中央市浅利１０１０−１
にらさき,韮崎市,35.7483478,138.4384846,日本、〒407-0262 山梨県韮崎市中田町中條１７９５
どうし,南都留郡道志村,35.4986462,138.9971569,日本、〒402-0219 山梨県南都留郡道志村9745番地
かつやま,南都留郡富士河口湖町,35.5046179,138.7344405,日本、〒401-0310 山梨県南都留郡富士河口湖町勝山３７５８−１
花かげの郷まきおか,山梨市,35.754504,138.7177894,日本、〒404-0012 山梨県山梨市牧丘町室伏２１２０
はくしゅう,北杜市,35.8102826,138.331312,日本、〒408-0315 山梨県北杜市白州町白須１３０８
富士吉田,富士吉田市,35.4590538,138.8018672,日本、〒403-0006 山梨県富士吉田市新屋３丁目７−３
南きよさと,北杜市,35.8655957,138.4316668,日本、〒408-0001 山梨県北杜市高根町長澤７６０
しらね,南アルプス市,35.6380019,138.4711144,日本、〒400-0221 山梨県南アルプス市在家塚５９５−１
こぶちさわ,北杜市,35.8786224,138.317519,日本、〒408-0044 山梨県北杜市小淵沢町２９６８−１
みのぶ,南巨摩郡身延町,35.4185176,138.4363552,日本、〒409-2522 山梨県南巨摩郡身延町下山１５９７ 1597番地
たばやま,北都留郡丹波山村,35.7898386,138.9223794,日本、〒409-0300 山梨県北都留郡丹波山村２９０１
富士川,南巨摩郡富士川町,35.5569749,138.4714638,日本、〒400-0501 山梨県南巨摩郡富士川町青柳町１６５５−３
こすげ,北都留郡小菅村,35.7603145,138.9409279,日本、〒409-0211 山梨県北都留郡小菅村３４４５番地
つる,都留市,35.5829001,138.9310673,日本、〒402-0002 山梨県都留市大原８８
なんぶ,南巨摩郡南部町,35.306406,138.4469715,日本、〒409-2211 山梨県南巨摩郡南部町中野３０３４−１
信州新町,長野市,36.5846068,138.0527813,日本、〒381-2403 長野県長野市信州新町水内４６１９
長野市大岡特産センター,長野市,36.5262806,137.9581168,日本、〒381-2704 長野県長野市大岡甲５２７５−１
信越さかえ,下水内郡栄村,36.9884751,138.5815534,日本、〒389-2702 長野県下水内郡栄村北信３７４６−１
小坂田公園,塩尻市,36.1063547,137.9882186,日本、〒399-0712 長野県塩尻市塩尻町１０９０
池田,北安曇郡池田町,36.3972167,137.884537,日本、〒399-8602 長野県北安曇郡池田町会染６３３０−１
中条,長野市,36.6037244,138.016396,日本、〒381-3205 長野県長野市中条住良木１７０４
みまき,東御市,36.3351207,138.3600384,日本、〒389-0402 長野県東御市布下３５−４
白馬,北安曇郡白馬村,36.6535956,137.8473105,日本、〒399-9211 長野県北安曇郡白馬村神城２１４６２−１
ふるさと豊田,中野市,36.8004655,138.3222969,日本、〒389-2104 長野県中野市永江２１３６
マルメロの駅ながと,小県郡長和町,36.2730539,138.2578711,日本、〒386-0603 長野県小県郡長和町古町２４２４−１９
ほっとぱ～く・浅科,佐久市,36.2574858,138.4043066,日本、〒384-2104 長野県佐久市甲２１７７−１
アルプス安曇野　ほりがねの里,安曇野市,36.2934784,137.8777758,日本、〒399-8211 長野県安曇野市堀金烏川２６９６
安曇野松川,北安曇郡松川村,36.3970053,137.8656377,日本、〒399-8501 長野県北安曇郡松川村細野５３７５−１
風穴の里,松本市,36.1614134,137.7621622,日本、〒390-1504 長野県松本市安曇稲核３５２８−１
北信州やまのうち,下高井郡山ノ内町,36.7413021,138.4046283,日本、〒381-0402 長野県下高井郡山ノ内町佐野３９３−２
上田　道と川の駅,上田市,36.4150761,138.184644,日本、〒386-1106 長野県上田市小泉 字塩田川原２５７５－２
信州蔦木宿,諏訪郡富士見町,35.86346959999999,138.2766085,日本、〒399-0214 長野県諏訪郡富士見町落合1984番地１
しなの,上水内郡信濃町,36.81829099999999,138.1901051,日本、〒389-1305 長野県上水内郡信濃町柏原１２６０−４
小谷,北安曇郡小谷村,36.8449754,137.900788,日本、〒399-9601 長野県北安曇郡小谷村北小谷１８６１−１
さかきた,東筑摩郡筑北村,36.4262009,138.0118471,日本、〒399-7601 長野県東筑摩郡筑北村坂北４３３２−１
ぽかぽかランド美麻,大町市,36.605967,137.8946029,日本、〒399-9101 長野県大町市美麻２２６７１
オアシスおぶせ,上高井郡小布施町,36.6896601,138.295362,日本、〒381-0203 長野県上高井郡小布施町大島６０１
雷電くるみの里,東御市,36.3557621,138.3739406,日本、〒389-0512 長野県東御市滋野乙４５２４−１
花の駅　千曲川,飯山市,36.8818835,138.3878533,日本、〒389-2414 長野県飯山市常盤７４２５
あおき,小県郡青木村,36.3728817,138.1401172,日本、〒386-1602 長野県小県郡青木村村松２６−１
おがわ,上水内郡小川村,36.6132373,137.9907167,日本、〒381-3302 長野県上水内郡小川村高府１５０２−２
美ヶ原高原,上田市,36.2225884,138.1205097,日本、〒386-0507 長野県上田市武石上本入 美ヶ原高原
今井　恵みの里,松本市,36.1483017,137.902817,日本、〒390-1131 長野県松本市今井８８６−２
FARMUS 木島平,下高井郡木島平村,36.8403083,138.4994642,日本、〒389-2303 長野県下高井郡木島平村３８−１
ヘルシーテラス佐久南,佐久市,36.2361803,138.4407532,日本、〒385-0061 長野県佐久市伴野７番地１
女神の里たてしな,北佐久郡立科町,36.2757917,138.3293456,日本、〒384-2211 長野県北佐久郡立科町茂田井２４８０
いくさかの郷,東筑摩郡生坂村,36.4114329,137.9465602,日本、〒399-7200 長野県東筑摩郡生坂村5204番地1
野沢温泉,下高井郡野沢温泉村,36.9602078,138.4475645,日本、〒389-2613 長野県下高井郡野沢温泉村虫生２３７５
ビーナスライン蓼科湖,茅野市,36.0367887,138.2673039,日本、〒391-0301 長野県茅野市北山蓼科４０３５−２９０６
和田宿ステーション,小県郡長和町,36.2055899,138.2136705,日本、〒386-0701 長野県小県郡長和町和田２８３４−５
日義木曽駒高原,木曽郡木曽町,35.8668984,137.7400031,日本、〒399-6101 長野県木曽郡木曽町日義４７３０−３
大桑,木曽郡大桑村,35.6821007,137.6535439,日本、〒399-5504 長野県木曽郡大桑村野尻１６０−２７
奈良井木曽の大橋,塩尻市,35.9675688,137.816074,日本、〒399-6303 長野県塩尻市奈良井１３４６−３
信州平谷,下伊那郡平谷村,35.3232905,137.6302506,日本、〒２５２ 長野県下伊那郡平谷村 JP 395-0601
信濃路下條,下伊那郡下條村,35.4171941,137.7948187,日本、〒399-2101 長野県下伊那郡下條村睦沢 ４３３１ ５
南アルプスむら長谷,伊那市,35.8096994,138.0834504,日本、〒396-0401 長野県伊那市長谷非持１４００
木曽ならかわ,塩尻市,35.9860105,137.8422907,日本、〒399-6302 長野県塩尻市木曽平沢２２７２−７
三岳,木曽郡木曽町,35.8226226,137.6481147,日本、〒397-0101 長野県木曽郡木曽町三岳１０４９１−９−１０４９１−９
信州新野千石平,下伊那郡阿南町,35.2575932,137.7453797,日本、〒399-1612 長野県下伊那郡阿南町新野２７００
花の里いいじま,上伊那郡飯島町,35.6617012,137.9099957,日本、〒399-3705 長野県上伊那郡飯島町七久保２２５２
遠山郷,飯田市,35.3208055,137.9303331,日本、〒399-1311 長野県飯田市南信濃和田４５６
木曽福島,木曽郡木曽町,35.8169413,137.682496,日本、〒397-0001 長野県木曽郡木曽町福島４０６１−１
木曽川源流の里　きそむら,木曽郡木祖村,35.9306788,137.7857751,日本、〒399-6201 長野県木曽郡木祖村薮原１６３−１
田切の里,上伊那郡飯島町,35.6903876,137.9401504,日本、〒399-3701 長野県上伊那郡飯島町田切２５９８−１
南信州とよおかマルシェ,下伊那郡豊丘村,35.544439,137.8908847,日本、〒399-3295 長野県下伊那郡豊丘村大字神稲12410番地
大芝高原,上伊那郡南箕輪村,35.8789951,137.9713115,日本、〒399-4511 長野県上伊那郡南箕輪村２３５８−５
南信州　うるぎ,下伊那郡売木村,35.2731681,137.6947512,日本、〒399-1601 長野県下伊那郡売木村５４３−１
歌舞伎の里大鹿,下伊那郡大鹿村,35.5651906,138.0370451,日本、〒399-3502 長野県下伊那郡大鹿村大河原３９０
美並,郡上市,35.6090792,136.9431979,日本、〒501-4101 岐阜県郡上市美並町上田２６０５
パスカル清見,高山市,35.9405383,137.0826743,日本、〒509-2702 岐阜県高山市清見町大原８５８−１
明宝,郡上市,35.8455122,137.0282614,日本、〒501-4301 岐阜県郡上市明宝大谷１０１５
花街道付知,中津川市,35.64286999999999,137.4414947,日本、〒508-0351 岐阜県中津川市付知町８５８１−１
美濃白川,加茂郡白川町,35.6158081,137.182528,日本、〒509-1107 岐阜県加茂郡白川町河東３５００−１
ラステンほらど,関市,35.5964246,136.7983629,日本、〒501-2814 岐阜県関市洞戸菅谷５４５
白山文化の里長滝,郡上市,35.9232475,136.8321946,日本、〒501-5104 岐阜県郡上市白鳥町長滝４０２−１９
奥飛騨温泉郷上宝,高山市,36.2487166,137.4999593,日本、〒506-1427 岐阜県高山市奥飛騨温泉郷田頃家１１−１
賤母,中津川市,35.5861736,137.5507906,日本、〒508-0501 岐阜県中津川市山口１−１４
ロック・ガーデン　ひちそう,加茂郡七宗町,35.5350488,137.1142993,日本、〒509-0403 岐阜県加茂郡七宗町中麻生１１７６−３
星のふる里　ふじはし,揖斐郡揖斐川町,35.5772545,136.4628563,日本、〒501-0804 岐阜県揖斐郡揖斐川町東横山264番地1
白川郷,大野郡白川村,36.2791001,136.9016222,日本、〒501-5625 岐阜県大野郡白川村飯島４１１
平成,関市,35.5519248,136.9973462,日本、〒501-3521 岐阜県関市下之保2503番地の２
アルプ飛騨古川,飛騨市,36.2206271,137.1921696,日本、〒509-4254 岐阜県飛騨市古川町上町１３４８−２
飛騨金山ぬく森の里温泉,下呂市,35.6679382,137.1469513,日本、〒509-1622 岐阜県下呂市金山町金山９１１−１
上矢作ラ・フォーレ福寿の里,恵那市,35.32936979999999,137.4652633,日本、〒509-7521 岐阜県恵那市上矢作町３５６６−１
モンデウス飛騨位山,高山市,36.061563,137.2262537,日本、〒509-3505 岐阜県高山市一之宮町７８４６−１
南飛騨小坂,下呂市,35.9314491,137.2944706,日本、〒509-3114 岐阜県下呂市小坂町赤沼田８１１−１
夢さんさん谷汲,揖斐郡揖斐川町,35.5315622,136.5851187,日本、〒501-1314 岐阜県揖斐郡揖斐川町谷汲名礼１７６６−２７
土岐美濃焼街道,土岐市,35.3299989,137.2207342,日本、〒509-5403 岐阜県土岐市肥田町肥田２８６−１５
富有柿の里いとぬき,本巣市,35.4725174,136.6758532,日本、〒501-0401 岐阜県本巣市上保１８−２
ななもり清見,高山市,36.1338435,137.1667511,日本、〒506-0101 岐阜県高山市清見町牧ケ洞２１４５
きりら坂下,中津川市,35.5704755,137.5345241,日本、〒509-9232 岐阜県中津川市坂下４５０−２
クレール平田,海津市,35.2747193,136.6710999,日本、〒503-0303 岐阜県海津市平田町野寺２３５７−２
馬瀬　美輝の里,下呂市,35.8200068,137.1875197,日本、〒509-2615 岐阜県下呂市馬瀬西村１４４７−１
飛騨街道　なぎさ,高山市,36.0067796,137.2916638,日本、〒509-3213 岐阜県高山市久々野町渚２６８５
ひだ朝日村,高山市,36.08795569999999,137.3508724,日本、〒509-3325 岐阜県高山市朝日町万石１５０
そばの郷　らっせぃみさと,恵那市,35.4055147,137.3586288,日本、〒509-7124 岐阜県恵那市三郷町佐々良木１４６１−１
織部の里・もとす,本巣市,35.4994343,136.6677049,日本、〒501-1201 岐阜県本巣市山口６７６
飛騨たかね工房,高山市,36.0468786,137.4404162,日本、〒509-3416 岐阜県高山市高根町中洞７６７−４
大日岳,郡上市,35.98754,136.8911476,日本、〒501-5305 岐阜県郡上市高鷲町西洞３６３２−１
桜の郷　荘川,高山市,36.0226058,136.9647044,日本、〒501-5414 岐阜県高山市荘川町猿丸８８
むげ川,関市,35.5151892,136.8541632,日本、〒501-2605 岐阜県関市武芸川町跡部１８１０
古今伝授の里やまと,郡上市,35.8161712,136.9023638,日本、〒501-4612 岐阜県郡上市大和町剣１６４
みのかも,美濃加茂市,35.4791936,137.0373455,日本、〒505-0003 岐阜県美濃加茂市山之上町２２９２−１
茶の里東白川,加茂郡東白川村,35.6675064,137.3523394,日本、〒509-1301 岐阜県加茂郡東白川村越原１０６１
和良,郡上市,35.7426196,137.0677795,日本、〒501-4507 岐阜県郡上市和良町宮地１１５５
うすずみ桜の里・ねお,本巣市,35.6601242,136.589233,日本、〒501-1531 岐阜県本巣市根尾門脇４３３−３
志野・織部,土岐市,35.3946969,137.1879367,日本、〒509-5102 岐阜県土岐市泉北山町２丁目１３−１
加子母,中津川市,35.7087367,137.3748811,日本、〒508-0421 岐阜県中津川市加子母３９００−２９
夜叉ヶ池の里さかうち,揖斐郡揖斐川町,35.6018466,136.4139294,日本、〒501-0902 岐阜県揖斐郡揖斐川町坂内広瀬306番地
おばあちゃん市・山岡,恵那市,35.3281901,137.3062536,日本、〒509-7606 岐阜県恵那市山岡町田代１５６５ 169 道の駅 おばあちゃん市・山岡
飛騨古川いぶし,飛騨市,36.2139275,137.1506753,日本、〒509-4265 岐阜県飛騨市古川町畦畑２１７３−１
月見の里　南濃,海津市,35.2150416,136.6007012,日本、〒503-0413 岐阜県海津市南濃町羽沢６７３−１
柳津,岐阜市,35.367684,136.7345522,日本、〒501-6112 岐阜県岐阜市柳津町北塚 仙右城7696-1
五木のやかた・かわうえ,中津川市,35.6024399,137.5018911,日本、〒509-9201 岐阜県中津川市川上１８４９−３
宙ドーム・神岡,飛騨市,36.3289699,137.307156,日本、〒506-1124 岐阜県飛騨市神岡町夕陽ケ丘６
白尾ふれあいパーク,郡上市,35.8894735,136.8922241,日本、〒501-5115 岐阜県郡上市白鳥町恩地１１−１
美濃にわか茶屋,美濃市,35.5545191,136.913791,日本、〒501-3714 岐阜県美濃市曽代２００７
飛騨白山,大野郡白川村,36.1739342,136.9017366,日本、〒501-5507 岐阜県大野郡白川村平瀬５１６−６２
半布里の郷　とみか,加茂郡富加町,35.4743449,136.9801648,日本、〒501-3303 岐阜県加茂郡富加町羽生２１７４−１
可児ッテ「ＣＡＮＩＴＴＥ」,可児市,35.4300679,137.1011564,日本、〒509-0212 岐阜県可児市柿田４１６−１
池田温泉,揖斐郡池田町,35.4196588,136.559772,日本、〒503-2428 岐阜県揖斐郡池田町片山１９５３−１
清流白川　クオーレの里,加茂郡白川町,35.5978531,137.2232505,日本、〒509-1104 岐阜県加茂郡白川町和泉９７−１
清流の里しろとり,郡上市,35.8811068,136.8546175,日本、〒501-5126 岐阜県郡上市白鳥町向小駄良６９３−２
パレットピアおおの,揖斐郡大野町,35.4318315,136.6303004,日本、〒501-0532 岐阜県揖斐郡大野町下磯３１３−２
富士,富士市,35.1335427,138.6472231,日本、〒416-0946 静岡県富士市五貫島６６９−１
くんま水車の里,浜松市,34.9620261,137.7331119,日本、〒431-3641 静岡県浜松市天竜区熊１９７６−１
花の三聖苑伊豆松崎,賀茂郡松崎町,34.7697095,138.8372252,日本、〒410-3604 静岡県賀茂郡松崎町大澤２０−１
宇津ノ谷峠,静岡市・藤枝市,34.9254899,138.3008493,日本、〒421-1121 静岡県藤枝市岡部町岡部２１９０−１
いっぷく処横川,浜松市,34.9055022,137.8717379,日本、〒431-3301 静岡県浜松市天竜区横川３０８５
フォーレなかかわね茶茗舘,榛原郡川根本町,35.07052,138.1082102,日本、〒428-0312 静岡県榛原郡川根本町水川７１−１
天城越え,伊豆市,34.8549725,138.9213651,日本、〒410-3206 静岡県伊豆市湯ケ島８９２−６
奥大井音戯の郷,榛原郡川根本町,35.1073889,138.1362175,日本、〒428-0411 静岡県榛原郡川根本町千頭１２１７−２
朝霧高原,富士宮市,35.4016012,138.5963409,日本、〒418-0101 静岡県富士宮市根原 字宝山４９２−１４
川根温泉,島田市,34.9590933,138.0904609,日本、〒428-0101 静岡県島田市川根町笹間渡２２０
富士川楽座,富士市,35.1617417,138.617942,日本、〒421-3305 静岡県富士市岩淵１４８８−１
玉露の里,藤枝市,34.9500382,138.2506861,日本、〒421-1115 静岡県藤枝市岡部町新舟１２１４−３
天竜相津　花桃の里,浜松市,34.9120854,137.8149331,日本、〒431-3755 静岡県浜松市天竜区大川３１−１０
伊東マリンタウン,伊東市,34.9854403,139.0937315,日本、〒414-0002 静岡県伊東市湯川５７１−１９
開国下田みなと,下田市,34.6747822,138.9509803,日本、〒415-0000 静岡県下田市外ケ岡１−１
掛川,掛川市,34.7944331,138.0761069,日本、〒436-0004 静岡県掛川市八坂８８２−１
ふじおやま,駿東郡小山町,35.3448487,138.9506144,日本、〒410-1326 静岡県駿東郡小山町用沢７２−２
潮見坂,湖西市,34.6771624,137.4992703,日本、〒431-0451 静岡県湖西市白須賀１８９６−２
伊豆のへそ,伊豆の国市,35.0122285,138.9412632,日本、〒410-2315 静岡県伊豆の国市田京１９５−２
下賀茂温泉　湯の花,賀茂郡南伊豆町,34.6494406,138.8670403,日本、〒415-0303 静岡県賀茂郡南伊豆町下賀茂１５７−１
すばしり,駿東郡小山町,35.3627847,138.8588037,日本、〒410-1431 静岡県駿東郡小山町須走３３８−４４
風のマルシェ　御前崎,御前崎市,34.6443591,138.092758,日本、〒437-1613 静岡県御前崎市合戸海岸４３８４−１
くるら戸田,沼津市,34.9712141,138.7865542,日本、〒410-3402 静岡県沼津市戸田１２９４−３
伊豆ゲートウェイ函南 ,田方郡函南町,35.0756895,138.9258043,日本、〒419-0124 静岡県田方郡函南町塚本８８７−１
伊豆月ケ瀬,伊豆市,34.9224449,138.9320567,日本、〒410-3215 静岡県伊豆市月ケ瀬78−２
豊根グリーンポート宮嶋,北設楽郡豊根村,35.1794284,137.6826154,日本、〒449-0405 愛知県北設楽郡豊根村坂宇場宮ノ嶋２９−３
鳳来三河三石,新城市,34.9025569,137.6134273,日本、〒441-1621 愛知県新城市下吉田田中１０６−１
田原めっくんはうす,田原市,34.6616087,137.2723069,日本、〒441-3416 愛知県田原市東赤石５丁目７４
伊良湖クリスタルポルト,田原市,34.583864,137.0207302,日本、〒441-3624 愛知県田原市伊良湖町宮下３０００−６５
つぐ高原グリーンパーク,北設楽郡設楽町,35.2003259,137.6050244,日本、〒441-2601 愛知県北設楽郡設楽町津具東山2−１５６
どんぐりの里　いなぶ,豊田市,35.2141118,137.50294,日本、〒441-2522 愛知県豊田市武節町針原２２−１
アグリステーションなぐら,北設楽郡設楽町,35.1730668,137.5346392,日本、〒441-2431 愛知県北設楽郡設楽町西納庫森田３２
デンパーク安城,安城市,34.9299419,137.0611341,日本、〒446-0046 愛知県安城市赤松町梶５
つくで手作り村,新城市,34.9639253,137.4122824,日本、〒441-1414 愛知県新城市作手清岳字ナガラミ１０−２
立田ふれあいの里,愛西市,35.1440872,136.694569,日本、〒496-0943 愛知県愛西市森川町井桁西２７
あかばねロコステーション,田原市,34.6077267,137.1893113,日本、〒441-3502 愛知県田原市赤羽根町大西３２−４
筆柿の里・幸田,額田郡幸田町,34.8484501,137.1387633,日本、〒444-0127 愛知県額田郡幸田町須美東山１７−５
にしお岡ノ山,西尾市,34.8767634,137.0831307,日本、〒445-0006 愛知県西尾市小島町岡ノ山１０５−５７
瀬戸しなの,瀬戸市,35.242128,137.1151006,日本、〒480-1207 愛知県瀬戸市品野町１丁目１２６−１
藤川宿,岡崎市,34.9142054,137.2169667,日本、〒444-3523 愛知県岡崎市藤川町東沖田４４
もっくる新城,新城市,34.9216582,137.5349078,日本、〒441-1318 愛知県新城市八束穂 五反田３２９−７
とよはし,豊橋市,34.6961528,137.4142322,日本、〒441-3201 愛知県豊橋市東七根町一の沢１１３−２
したら,北設楽郡設楽町,35.0643394,137.5490996,日本、〒441-2302 愛知県北設楽郡設楽町清崎中田17番地7
飯高駅,松阪市,34.427543,136.3319242,日本、〒515-1502 三重県松阪市飯高町宮前１７７
菰野,三重郡菰野町,35.0136843,136.5025359,日本、〒510-1233 三重県三重郡菰野町菰野２２５６
紀宝町ウミガメ公園,南牟婁郡紀宝町,33.7697739,136.0285003,日本、〒519-5711 三重県南牟婁郡紀宝町井田５６８−７
パーク七里御浜,南牟婁郡御浜町,33.8034297,136.04295,日本、〒519-5204 三重県南牟婁郡御浜町阿田和４９２６−５
海山,北牟婁郡紀北町,34.1023351,136.2141253,日本、〒519-3406 三重県北牟婁郡紀北町相賀１４３９−３
奥伊勢木つつ木館,度会郡大紀町,34.367596,136.4187191,日本、〒519-2703 三重県度会郡大紀町滝原８７０−３７
熊野きのくに,熊野市,33.960114,136.1045614,日本、〒519-4561 三重県熊野市飛鳥町大又１０９−２１
茶倉駅,松阪市,34.4604029,136.3982029,日本、〒515-1411 三重県松阪市飯南町粥見４５２−１
奥伊勢おおだい,多気郡大台町,34.3938061,136.4084709,日本、〒519-2404 三重県多気郡大台町佐原６６３−１
美杉,津市,34.5118142,136.3042454,日本、〒515-3312 三重県津市美杉町上多気 上多気 ２６７
関宿,亀山市,34.8494628,136.3926562,日本、〒519-1111 三重県亀山市関町新所６７４−８
伊勢志摩,志摩市,34.3594227,136.7989926,日本、〒517-0213 三重県志摩市磯部町穴川５１１−５
紀伊長島マンボウ,北牟婁郡紀北町,34.2169491,136.3466883,日本、〒519-3204 三重県北牟婁郡紀北町東長島２４１０−７３
あやま,伊賀市,34.8203247,136.1780715,日本、〒518-1315 三重県伊賀市川合 焼尾3370-29
いが,伊賀市,34.8375256,136.2532076,日本、〒519-1402 三重県伊賀市柘植町６１８７−１
津かわげ,津市,34.7965508,136.5175782,日本、〒510-0311 三重県津市河芸町三行２５５−４
熊野・花の窟,熊野市,33.8790187,136.0922289,日本、〒519-4325 三重県熊野市有馬町１３７
熊野・板屋九郎兵衛の里,熊野市,33.8765002,135.9147768,日本、〒519-5413 三重県熊野市紀和町板屋８２
あいの土山,甲賀市,34.9277802,136.2956716,日本、〒528-0211 滋賀県甲賀市土山町北土山２９００
くつき新本陣,高島市,35.3508477,135.9156683,日本、〒520-1401 滋賀県高島市朽木市場７７７
しんあさひ風車村,高島市,35.350437,136.0670329,日本、〒520-1511 滋賀県高島市新旭町藁園３３６
東近江市あいとうマーガレットステーション,東近江市,35.1095778,136.2583417,日本、〒527-0162 滋賀県東近江市妹町１８４−１
びわ湖大橋米プラザ,大津市,35.1245805,135.9282623,日本、〒520-0241 滋賀県大津市今堅田３丁目１−１
近江母の郷,米原市,35.3432453,136.2776882,日本、〒521-0062 滋賀県米原市宇賀野１３６４−１
こんぜの里りっとう,栗東市,34.9713393,136.022953,日本、〒520-3003 滋賀県栗東市荒張１−１１
湖北みずどりステーション,長浜市,35.4449941,136.1906897,日本、〒529-0365 滋賀県長浜市湖北町今西１７３１−１
草津,草津市,35.07000379999999,135.9394328,日本、〒525-0001 滋賀県草津市下物町１４３６
竜王かがみの里,蒲生郡竜王町,35.0857582,136.0791906,日本、〒520-2573 滋賀県蒲生郡竜王町鏡１２３１−２
アグリの郷栗東,栗東市,35.0386669,136.0014829,日本、〒520-3041 滋賀県栗東市出庭９６１−１
マキノ追坂峠,高島市,35.4656616,136.0854137,日本、〒520-1803 滋賀県高島市マキノ町海津８９７−２７
藤樹の里あどがわ,高島市,35.3261422,136.0300177,日本、〒520-1221 滋賀県高島市安曇川町青柳１１６２−１
伊吹の里,米原市,35.3967918,136.3709792,日本、〒521-0311 滋賀県米原市伊吹１７３２−１
塩津海道あぢかまの里,長浜市,35.5201998,136.1629667,日本、〒529-0701 滋賀県長浜市西浅井町塩津浜１７６５
せせらぎの里こうら,犬上郡甲良町,35.2019945,136.2755518,日本、〒522-0252 滋賀県犬上郡甲良町金屋１５４９−４
妹子の郷,大津市,35.1596201,135.9015179,日本、〒520-0526 滋賀県大津市和邇中５２８
奥永源寺 渓流の里,東近江市,35.1054168,136.3721041,日本、〒527-0207 滋賀県東近江市蓼畑町５１０
アグリパーク竜王,蒲生郡竜王町,35.043859,136.1446567,日本、〒520-2531 滋賀県蒲生郡竜王町山之上６５２６
浅井三姉妹の郷,長浜市,35.4301505,136.3056452,日本、〒526-0244 滋賀県長浜市内保町２８４３
舟屋の里伊根,与謝郡伊根町,35.6745004,135.2911066,日本、〒626-0424 京都府与謝郡伊根町亀島４５９
シルクのまち　かや,与謝郡与謝野町,35.4815415,135.093651,日本、〒629-2422 京都府与謝郡与謝野町滝９８
てんきてんき丹後,京丹後市,35.7388911,135.1053529,日本、〒627-0221 京都府京丹後市丹後町竹野３１３−１
和,船井郡京丹波町,35.2702587,135.3976297,日本、〒629-1131 京都府船井郡京丹波町坂原上モジリ１１
ガレリアかめおか,亀岡市,35.0146256,135.5665345,日本、〒621-0806 京都府亀岡市余部町宝久保１−１
丹波マーケス,船井郡京丹波町,35.1548894,135.4287141,日本、〒622-0213 京都府船井郡京丹波町須知色紙田３−５
瑞穂の里・さらびき,船井郡京丹波町,35.1673049,135.3613916,日本、〒622-0322 京都府船井郡京丹波町大朴休石１０−１
農匠の郷やくの,福知山市,35.3382648,134.9302312,日本、〒629-1322 京都府福知山市夜久野町平野2150番地
舞鶴港とれとれセンター,舞鶴市,35.4505016,135.315415,日本、〒624-0946 京都府舞鶴市下福井９０５
京都新光悦村,南丹市,35.1239063,135.4823252,日本、〒622-0025 京都府南丹市園部町曽我谷縄手１５−３
丹後王国「食のみやこ」,京丹後市,35.6757216,135.0685129,日本、〒627-0133 京都府京丹後市弥栄町鳥取１２３
美山ふれあい広場,南丹市,35.2767452,135.5879344,日本、〒601-0722 京都府南丹市美山町安掛下23−１
ウッディー京北,京都市,35.1560556,135.6331579,日本、〒601-0251 京都府京都市右京区京北周山町上寺田１−１
くみはまSANKAIKAN,京丹後市,35.6303551,134.9319629,日本、〒629-3438 京都府京丹後市久美浜町浦明１７０９
スプリングスひよし,南丹市,35.0954414,135.4743655,日本、〒629-0335 京都府南丹市日吉町 中宮ノ向８番地
京丹波　味夢の里,船井郡京丹波町,35.1601592,135.41098,日本、〒622-0232 京都府船井郡京丹波町曽根深シノ６５−１
海の京都　宮津,宮津市,35.5382096,135.194067,日本、〒626-0012 京都府宮津市浜町３００７
お茶の京都　みなみやましろ村,相楽郡南山城村,34.7651413,136.0244838,日本、〒619-1411 京都府相楽郡南山城村北大河原殿田１０２
ちはやあかさか,南河内郡千早赤阪村,34.4643162,135.625915,日本、〒585-0042 大阪府南河内郡千早赤阪村二河原邊７
近つ飛鳥の里太子,南河内郡太子町,34.5167885,135.6584015,日本、〒583-0992 大阪府南河内郡太子町山田２２５４−３
能勢（くりの郷）,豊能郡能勢町,34.9569824,135.4016274,日本、〒563-0364 大阪府豊能郡能勢町平野５３５
かなん,南河内郡河南町,34.4784486,135.6170698,日本、〒585-0034 大阪府南河内郡河南町神山５２３−１
しらとりの郷・羽曳野,羽曳野市,34.5337064,135.5879089,日本、〒583-0866 大阪府羽曳野市埴生野９７５−３
いずみ山愛の里,和泉市,34.4235263,135.4833276,日本、〒594-1136 大阪府和泉市仏並町３９８−１
とっとパーク小島,泉南郡岬町,34.3151003,135.0999253,日本、〒599-0314 大阪府泉南郡岬町多奈川小島４５５−１
愛彩ランド,岸和田市,34.42234270000001,135.425898,日本、〒596-0817 大阪府岸和田市岸の丘町３丁目６−１８
みさき,泉南郡岬町,34.3257344,135.1738511,日本、〒599-0301 大阪府泉南郡岬町淡輪５６５４−３
奥河内くろまろの郷,河内長野市,34.436131,135.5504785,日本、〒586-0036 大阪府河内長野市高向１２１８−１
はが,宍粟市,35.2013766,134.5220646,日本、〒671-4213 兵庫県宍粟市波賀町原１４９
あさご,朝来市,35.242504,134.8203356,日本、〒679-3423 兵庫県朝来市多々良木字牧野２１３−１
ちくさ,宍粟市,35.1079926,134.4418648,日本、〒671-3225 兵庫県宍粟市千種町下河野７４５−５
神鍋高原,豊岡市,35.4995679,134.6754919,日本、〒669-5372 兵庫県豊岡市日高町栗栖野５９−１３
村岡ファームガーデン,美方郡香美町,35.4618936,134.6028463,日本、〒667-1321 兵庫県美方郡香美町村岡区大糠３２−１
やぶ,養父市,35.3822455,134.8159766,日本、〒667-0112 兵庫県養父市養父市場１２９４−７７
但馬楽座,養父市,35.3787591,134.7840694,日本、〒667-0131 兵庫県養父市上野２９９
みなみ波賀,宍粟市,35.1481297,134.5397828,日本、〒671-4241 兵庫県宍粟市波賀町安賀８−１
しんぐう,たつの市,34.9222679,134.5372073,日本、〒679-4342 兵庫県たつの市新宮町平野９９−２
杉原紙の里・多可,多可郡多可町,35.1889579,134.9301689,日本、〒679-1322 兵庫県多可郡多可町加美区鳥羽７３３−１
あおがき,丹波市,35.2414671,135.0097337,日本、〒669-3803 兵庫県丹波市青垣町西芦田５４１
ハチ北,美方郡香美町,35.4113426,134.5998328,日本、〒667-1334 兵庫県美方郡香美町村岡区福岡６０８−１
あわじ,淡路市,34.6015666,135.0089894,日本、〒656-2401 兵庫県淡路市岩屋１８７３−１
みき,三木市,34.7873259,134.977258,日本、〒673-0433 兵庫県三木市福井2426番地
うずしお,南あわじ市,34.2479344,134.67184,日本、〒656-0503 兵庫県南あわじ市福良丙９４７−８
播磨いちのみや,宍粟市,35.0885442,134.5882325,日本、〒671-4133 兵庫県宍粟市一宮町須行名５１０−１
フレッシュあさご,朝来市,35.21312169999999,134.7942448,日本、〒679-3433 兵庫県朝来市岩津９６
宿場町ひらふく,佐用郡佐用町,35.0449305,134.3694256,日本、〒679-5331 兵庫県佐用郡佐用町平福９８８−１
あゆの里　矢田川,美方郡香美町,35.5549471,134.5634447,日本、〒667-1362 兵庫県美方郡香美町村岡区原９３３−１
とうじょう,加東市,34.8942042,135.0757051,日本、〒673-1341 兵庫県加東市南山１丁目５−３
いながわ,川辺郡猪名川町,34.9193399,135.3517543,日本、〒666-0224 兵庫県川辺郡猪名川町万善竹添７０−１
東浦ターミナルパーク,淡路市,34.5374105,134.992386,日本、〒656-2305 兵庫県淡路市浦６４８
北はりまエコミュージアム,西脇市,35.00824040000001,134.98754,日本、〒677-0022 兵庫県西脇市寺内５１７−１
あいおい白龍城,相生市,34.8042241,134.4610577,日本、〒678-0053 兵庫県相生市那波南本町８−５５
淡河,神戸市,34.7136252,135.2223404,日本、〒651-1603 兵庫県神戸市北区淡河町 字弘法垣 643番1
丹波おばあちゃんの里,丹波市,35.1660311,135.1167533,日本、〒669-4131 兵庫県丹波市春日町七日市７１０
但馬のまほろば,朝来市,35.311349,134.8700245,日本、〒669-5153 兵庫県朝来市山東町大月９２−６
ようか但馬蔵,養父市,35.3940031,134.7425362,日本、〒667-0043 兵庫県養父市八鹿町高柳２４１−１
みつ,たつの市,34.7799696,134.5232055,日本、〒671-1332 兵庫県たつの市御津町室津８９６−２３
あまるべ,美方郡香美町,35.6495276,134.5592618,日本、〒669-6671 兵庫県美方郡香美町香住区余部１７２３−４
福良,南あわじ市,34.2644392,134.7240732,日本、〒656-0501 兵庫県南あわじ市福良１５２８−４
山田錦発祥のまち・多可,多可郡多可町,35.0590035,134.918822,日本、〒679-1114 兵庫県多可郡多可町中区岸上２８１−１
神戸フルーツ・フラワーパーク大沢,神戸市,34.8500732,135.1922111,日本、〒651-1522 兵庫県神戸市北区大沢町上大沢２１５０
山陰海岸ジオパーク浜坂の郷,美方郡新温泉町,35.5676466,134.325746,日本、〒669-6741 兵庫県美方郡新温泉町栃谷５７
銀の馬車道・神河,神崎郡神河町,35.0911683,134.7781496,日本、〒679-2434 兵庫県神崎郡神河町吉冨88番地10号
吉野路　大塔,五條市,34.2141879,135.732953,日本、〒637-0417 奈良県五條市大塔町阪本２２５−６
吉野路　上北山,吉野郡上北山村,34.1397126,135.9999825,日本、〒639-3701 奈良県吉野郡上北山村河合１−１
杉の湯　川上,吉野郡川上村,34.3370615,135.9548161,日本、〒639-3553 奈良県吉野郡川上村迫６９５
吉野路　黒滝,吉野郡黒滝村,34.3065283,135.8231721,日本、〒638-0233 奈良県吉野郡黒滝村長瀬２２
ふたかみパーク當麻,葛城市,34.5264565,135.693238,日本、〒639-0272 奈良県葛城市新在家４０２−１
宇陀路大宇陀,宇陀市,34.4759247,135.9322381,日本、〒633-2164 奈良県宇陀市大宇陀拾生７１４−１
十津川郷,吉野郡十津川村,33.9886278,135.7933739,日本、〒637-1333 奈良県吉野郡十津川村小原２２５−１
宇陀路室生,宇陀市,34.5765795,136.0343835,日本、〒633-0317 奈良県宇陀市室生三本松 ３１７６ １
針Ｔ・Ｒ・Ｓ,奈良市,34.6095027,135.9620278,日本、〒632-0251 奈良県奈良市針町３４５
大和路へぐり,生駒郡平群町,34.6235091,135.7062627,日本、〒636-0903 奈良県生駒郡平群町平等寺７５−１
吉野路　大淀ｉセンター,吉野郡大淀町,34.41223859999999,135.7969543,日本、〒638-0801 奈良県吉野郡大淀町芦原５３６−１
伊勢本街道　御杖,宇陀郡御杖村,34.5156929,136.1993456,日本、〒633-1301 奈良県宇陀郡御杖村神末6325番地
かつらぎ,葛城市,34.4947436,135.7044831,日本、〒639-2153 奈良県葛城市太田１２５７
レスティ唐古・鍵,磯城郡田原本町,34.571301,135.7974219,日本、〒636-0226 奈良県磯城郡田原本町唐古７０−１
飛鳥,高市郡明日香村,34.4648892,135.7986975,日本、〒634-0131 奈良県高市郡明日香村越６−２
なら歴史芸術文化村,天理市,34.58940279999999,135.8479527,日本、〒632-0032 奈良県天理市杣之内町４３７−３
クロスウェイなかまち,奈良県,34.571301,135.7974219,日本、〒636-0226 奈良県磯城郡田原本町唐古７０−１
しみず,有田郡有田川町,34.0876,135.4438481,日本、〒643-0521 和歌山県有田郡有田川町清水６０７
San　Pin  中津,日高郡日高川町,33.9503119,135.2632787,日本、〒644-1111 和歌山県日高郡日高川町船津８２０
ふるさとセンター大塔,田辺市,33.7428191,135.501844,日本、〒646-1101 和歌山県田辺市鮎川９９７−１
龍神,田辺市,33.9662345,135.5647761,日本、〒645-0525 和歌山県田辺市龍神村龍神１７０−３
イノブータンランド・すさみ,西牟婁郡すさみ町,33.5205772,135.5456459,日本、〒649-2611 和歌山県西牟婁郡すさみ町見老津１−３２
志原海岸,西牟婁郡白浜町,33.5704765,135.4314003,日本、〒649-2511 和歌山県西牟婁郡白浜町日置２０３９−７３
熊野古道中辺路,田辺市,33.8120769,135.5946618,日本、〒646-1402 和歌山県田辺市中辺路町福定２４７４−１
しらまの里,有田郡有田川町,34.0150525,135.3344324,日本、〒643-0164 和歌山県有田郡有田川町宇井苔２１３−１
みなべうめ振興館,日高郡みなべ町,33.7895204,135.3287271,日本、〒645-0026 和歌山県日高郡みなべ町谷口538番地１
紀州備長炭記念公園,田辺市,33.8033206,135.4268413,日本、〒646-0102 和歌山県田辺市秋津川１４９１−１
瀞峡街道熊野川,新宮市,33.7906987,135.8966567,日本、〒647-1212 和歌山県新宮市熊野川町田長５４−８
紀の川万葉の里,伊都郡かつらぎ町,34.2845993,135.4649845,日本、〒649-7164 和歌山県伊都郡かつらぎ町窪４８７−２
奥熊野古道ほんぐう,田辺市,33.8649509,135.7622057,日本、〒647-1743 和歌山県田辺市本宮町伏拝９０４−４
おくとろ,東牟婁郡北山村,33.9392425,135.9463859,日本、〒647-1604 和歌山県東牟婁郡北山村下尾井３３５
水の郷日高川　龍游,田辺市,33.8951952,135.4395636,日本、〒645-0301 和歌山県田辺市龍神村福井５１１
明恵ふるさと館,有田郡有田川町,34.0540572,135.2629427,日本、〒643-0152 和歌山県有田郡有田川町金屋３２２−１
根来さくらの里,岩出市,34.3118607,135.306942,日本、〒649-6201 和歌山県岩出市押川３７−１
あらぎの里,有田郡有田川町,34.0931077,135.4129196,日本、〒643-0511 和歌山県有田郡有田川町三田６６４−１
一枚岩,東牟婁郡古座川町,33.545955,135.7201402,日本、〒649-4235 和歌山県東牟婁郡古座川町相瀬２９０−２
白崎海洋公園,日高郡由良町,33.9770781,135.0725602,日本、〒649-1123 和歌山県日高郡由良町大引９６０
椿はなの湯,西牟婁郡白浜町,33.6032963,135.3918077,日本、〒649-2326 和歌山県西牟婁郡白浜町椿1058番地の1
なち,東牟婁郡那智勝浦町,33.6444694,135.9367903,日本、〒649-5314 和歌山県東牟婁郡那智勝浦町浜ノ宮３６１−２
瀧之拝太郎,東牟婁郡古座川町,33.6019063,135.76573,日本、〒649-4216 和歌山県東牟婁郡古座川町小川７７４−１
田辺市龍神ごまさんスカイタワー,田辺市,34.061278,135.5644111,日本、〒645-0525 和歌山県田辺市龍神村龍神１０２０−６
くしもと橋杭岩,東牟婁郡串本町,33.4887184,135.7942816,日本、〒649-3511 和歌山県東牟婁郡串本町鬮野川１５４９−８
柿の郷くどやま,伊都郡九度山町,34.2932539,135.5555289,日本、〒648-0161 和歌山県伊都郡九度山町入郷５−５
虫喰岩,東牟婁郡古座川町,33.5394604,135.8261987,日本、〒649-4103 和歌山県東牟婁郡古座川町池野山７０５−１
くちくまの,西牟婁郡上富田町,33.6917761,135.413957,日本、〒649-2104 和歌山県西牟婁郡上富田町岩崎５５５−５
すさみ,西牟婁郡すさみ町,33.505491,135.5997407,日本、〒649-3142 和歌山県西牟婁郡すさみ町江住８０８−１
かつらぎ西,伊都郡かつらぎ町,34.2977605,135.4739791,日本、〒649-7161 和歌山県伊都郡かつらぎ町笠田東1271ｰ28
たいじ,東牟婁郡太地町,33.5922468,135.9337306,日本、〒649-5172 和歌山県東牟婁郡太地町大字森浦１４３−１
青洲の里,紀の川市,34.28082560000001,135.4416104,日本、〒649-6604 和歌山県紀の川市西野山４７３
くしがきの里,伊都郡かつらぎ町,34.3178094,135.4766278,日本、〒649-7102 和歌山県伊都郡かつらぎ町滝５３−１
ねごろ歴史の丘,岩出市,34.2869394,135.3113623,日本、〒649-6202 和歌山県岩出市根来２０２０−１
四季の郷公園,和歌山市,34.2161978,135.26019,日本、〒640-0305 和歌山県和歌山市明王寺４７９−１
海南サクアス,海南市,34.1239009,135.171676,日本、〒649-0141 和歌山県海南市下津町小南
大栄,東伯郡北栄町,35.4988132,133.762229,日本、〒689-2221 鳥取県東伯郡北栄町由良宿１４５８−１５
三朝・楽市楽座,東伯郡三朝町,35.3663391,133.8503418,日本、〒682-0177 鳥取県東伯郡三朝町大柿５９１
北条公園,東伯郡北栄町,35.4979085,133.8199677,日本、〒689-2102 鳥取県東伯郡北栄町国坂１５２５−９２
ポート赤碕,東伯郡琴浦町,35.5071128,133.6623052,日本、〒689-2502 鳥取県東伯郡琴浦町別所２５５
はっとう,八頭郡八頭町,35.3665307,134.3394958,日本、〒680-0607 鳥取県八頭郡八頭町徳丸６２５
犬挟,倉吉市,35.32935640000001,133.7560928,日本、〒682-0412 鳥取県倉吉市関金町山口２０３０
はわい,東伯郡湯梨浜町,35.4942611,133.8904639,日本、〒682-0701 鳥取県東伯郡湯梨浜町宇野２３４３ はわいSA
神話の里　白うさぎ,鳥取市,35.5255609,134.1143731,日本、〒689-0206 鳥取県鳥取市白兎６１３
清流茶屋　かわはら,鳥取市,35.3934326,134.2028283,日本、〒680-1213 鳥取県鳥取市河原町高福８３７
若桜,八頭郡若桜町,35.34389290000001,134.4003087,日本、〒680-0701 鳥取県八頭郡若桜町若桜９８３−２
大山恵みの里,西伯郡大山町,35.5045019,133.5018639,日本、〒689-3212 鳥取県西伯郡大山町名和９５１−６
燕趙園,東伯郡湯梨浜町,35.4646393,133.892651,日本、〒689-0715 鳥取県東伯郡湯梨浜町引地５６３−１
きなんせ岩美,岩美郡岩美町,35.5676561,134.3256515,日本、〒681-0065 鳥取県岩美郡岩美町新井３３７−４
奥大山,日野郡江府町,35.2957955,133.4741476,日本、〒689-4431 鳥取県日野郡江府町佐川９０８−３
にちなん日野川の郷,日野郡日南町,35.1705841,133.310922,日本、〒689-5211 鳥取県日野郡日南町生山３８５
琴の浦,東伯郡琴浦町,35.5021841,133.6578649,日本、〒689-2502 鳥取県東伯郡琴浦町別所１０３０−１
西いなば 気楽里,鳥取市,35.4973963,134.0534723,日本、〒689-0422 鳥取県鳥取市鹿野町岡木２８０−３
掛合の里,雲南市,35.2108364,132.8169305,日本、〒690-2701 島根県雲南市掛合町掛合１８００−２
頓原,飯石郡飯南町,35.0898506,132.7849481,日本、〒690-3206 島根県飯石郡飯南町花栗４８
ゆうひパーク浜田,浜田市,34.8891165,132.0711454,日本、〒697-0017 島根県浜田市原井町１２０３−１
ゆうひパーク三隅,浜田市,34.8203697,131.9768569,日本、〒699-3222 島根県浜田市三隅町折居２２０−１
瑞穂,邑智郡邑南町,34.8543238,132.5187262,日本、〒696-0222 島根県邑智郡邑南町下田所２６０−３
グリーンロード大和,邑智郡美郷町,34.9674064,132.6417801,日本、〒696-0706 島根県邑智郡美郷町長藤２３０−２
大社ご縁広場,出雲市,35.3892346,132.6863017,日本、〒699-0721 島根県出雲市大社町修理免７３５−５
サンエイト美都,益田市,34.6739451,132.0484904,日本、〒698-0202 島根県益田市美都町宇津川ロ５８６−２
奥出雲おろちループ,仁多郡奥出雲町,35.0964998,133.1286168,日本、〒699-1811 島根県仁多郡奥出雲町八川２５００−２９４
広瀬・富田城,安来市,35.3683622,133.1806905,日本、〒692-0402 島根県安来市広瀬町町帳７７５−１
赤来高原,飯石郡飯南町,34.999005,132.7138348,日本、〒690-3513 島根県飯石郡飯南町下赤名８８０−３
かきのきむら,鹿足郡吉賀町,34.4426022,131.8678953,日本、〒699-5301 島根県鹿足郡吉賀町柿木５００−１
キララ多伎,出雲市,35.2903436,132.632079,日本、〒699-0902 島根県出雲市多伎町多岐１３５−１
湯の川,出雲市,35.3957096,132.8693206,日本、〒699-0501 島根県出雲市斐川町学頭８２５−２
シルクウェイにちはら,鹿足郡津和野町,34.5531233,131.8080932,日本、〒699-5216 島根県鹿足郡津和野町池村１９９７−４
秋鹿なぎさ公園,松江市,35.4745789,132.9506912,日本、〒690-0262 島根県松江市岡本町１０４８−１
津和野温泉なごみの里,鹿足郡津和野町,34.4503048,131.7601768,日本、〒699-5613 島根県鹿足郡津和野町鷲原イ２５６
さくらの里きすき,雲南市,35.3186616,132.9121151,日本、〒699-1312 島根県雲南市木次町山方１１３４−３１
本庄,松江市,35.518199,133.1365223,日本、〒690-1114 島根県松江市野原町４０１−８
匹見峡,益田市,34.6488731,132.1078523,日本、〒698-1201 島根県益田市匹見町道川イ−６５−１
酒蔵奥出雲交流館,仁多郡奥出雲町,35.227763,133.0871961,日本、〒699-1701 島根県仁多郡奥出雲町亀嵩1380番地１
インフォメーションセンターかわもと,邑智郡川本町,34.9661551,132.4728031,日本、〒696-0003 島根県邑智郡川本町因原５０５−５
むいかいち温泉,鹿足郡吉賀町,34.3531772,131.9432282,日本、〒699-5506 島根県鹿足郡吉賀町有飯２２５−２
ロード銀山,大田市,35.2213422,132.512529,日本、〒694-0052 島根県大田市久手町刺鹿刺鹿１９４５−１
サンピコごうつ,江津市,35.045208,132.2990861,日本、〒699-2841 島根県江津市後地町９９５−１
おろちの里,雲南市,35.2203066,132.9621903,日本、〒699-1341 島根県雲南市木次町北原１６０３
あらエッサ,安来市,35.4095288,133.3124699,日本、〒692-0074 島根県安来市中海町１１８
たたらば壱番地,雲南市,35.1669843,132.8302358,日本、〒690-2801 島根県雲南市吉田町吉田４３７８−３１
ごいせ仁摩,大田市,35.1459526,132.4130276,日本、〒699-2303 島根県大田市仁摩町大国42−１
かもがわ円城,加賀郡吉備中央町,34.8929033,133.8139909,日本、〒709-2413 岡山県加賀郡吉備中央町上田西２３２５−１
がいせん桜　新庄宿,真庭郡新庄村,35.2037268,133.5703058,日本、〒717-0201 岡山県真庭郡新庄村宝田２１９０−１
あわくらんど,英田郡西粟倉村,35.18004579999999,134.3354075,日本、〒707-0503 岡山県英田郡西粟倉村影石４１８
くめなん,久米郡久米南町,34.9125549,133.9471526,日本、〒709-3617 岡山県久米郡久米南町下二ケ１３６７−１
みやま公園,玉野市,34.5186356,133.9102876,日本、〒706-0141 岡山県玉野市槌ケ原２−４４６４
一本松展望園,瀬戸内市,34.6566052,134.1653336,日本、〒701-4212 岡山県瀬戸内市邑久町尻海３５３９
黒井山グリーンパーク,瀬戸内市,34.69351109999999,134.205422,日本、〒701-4501 岡山県瀬戸内市邑久町虫明５１６５−１９６
鯉が窪,新見市,34.9318342,133.3316997,日本、〒719-3701 岡山県新見市哲西町矢田３５８５−１
蒜山高原,真庭市,35.2948351,133.6680191,日本、〒717-0503 岡山県真庭市蒜山富山根６９４−１２９
風の家,真庭市,35.2769908,133.6237712,日本、〒717-0612 岡山県真庭市蒜山上徳山１３８０−６
彩菜茶屋,美作市,35.0147477,134.1509989,日本、〒707-0003 岡山県美作市明見１６７
奥津温泉,苫田郡鏡野町,35.2234134,133.9229238,日本、〒708-0503 岡山県苫田郡鏡野町奥津４６３
久米の里,津山市,35.0561074,133.9228493,日本、〒709-4613 岡山県津山市宮尾５６３−１
醍醐の里,真庭市,34.9913802,133.7252796,日本、〒719-3152 岡山県真庭市鹿田３９１−１
かよう,加賀郡吉備中央町,34.8163087,133.7052269,日本、〒716-1551 岡山県加賀郡吉備中央町北１９７４
笠岡ベイファーム,笠岡市,34.473791,133.4998718,日本、〒714-0046 岡山県笠岡市カブト南町２４５−５
山陽道やかげ宿,小田郡矢掛町,34.6236445,133.5919766,日本、〒714-1201 岡山県小田郡矢掛町矢掛１９８８−１０
リストアステーション,庄原市,34.7846419,133.0712058,日本、〒729-3703 広島県庄原市総領町下領家１−３
遊ＹＯＵさろん東城,庄原市,34.8891679,133.2758148,日本、〒729-5121 広島県庄原市東城町川東８７７
さんわ182ステーション,神石郡神石高原町,34.67363,133.299562,日本、〒720-1604 広島県神石郡神石高原町坂瀬川５１４６−２
豊平どんぐり村,山県郡北広島町,34.6447051,132.4430082,日本、〒731-1712 広島県山県郡北広島町都志見１２６０９
来夢とごうち,山県郡安芸太田町,34.5743647,132.2691978,日本、〒731-3664 広島県山県郡安芸太田町上殿６３２−２
よがんす白竜,三原市,34.5064515,132.9139459,日本、〒729-1321 広島県三原市大和町和木６５２−３
アリストぬまくま,福山市,34.3914873,133.3053178,日本、〒720-0313 広島県福山市沼隈町１７９６
スパ羅漢,廿日市市,34.3890948,132.1041804,日本、〒738-0226 広島県廿日市市飯山２１−５
ゆめランド布野,三次市,34.855533,132.7972664,日本、〒728-0202 広島県三次市布野町下布野６６１−１
ふぉレスト君田,三次市,34.8996839,132.8490518,日本、〒728-0405 広島県三次市君田町泉吉田３１１−３
クロスロードみつぎ,尾道市,34.5118613,133.1446442,日本、〒722-0342 広島県尾道市御調町大田３３
舞ロードＩＣ千代田,山県郡北広島町,34.6746695,132.5411891,日本、〒731-1533 広島県山県郡北広島町有田１１２２
北の関宿安芸高田,安芸高田市,34.7212718,132.6808156,日本、〒731-0611 広島県安芸高田市美土里町横田３３１−１
湖畔の里福富,東広島市,34.5320185,132.7757294,日本、〒739-2303 広島県東広島市福富町久芳１５０６
たけはら,竹原市,34.3439709,132.9122292,日本、〒725-0022 広島県竹原市本町１丁目１−１
みはら神明の里,三原市,34.3967192,133.1044761,日本、〒729-0324 広島県三原市糸崎４丁目２１−１
たかの,庄原市,35.0240569,132.8815882,日本、〒727-0423 広島県庄原市高野町下門田49
世羅,世羅郡世羅町,34.5938095,133.1117129,日本、〒729-3302 広島県世羅郡世羅町川尻字大柳２４０２−１
びんご府中,府中市,34.5703725,133.2359213,日本、〒726-0004 広島県府中市府川町２３０−１
三矢の里あきたかた,安芸高田市,34.6478231,132.6738328,日本、〒731-0523 広島県安芸高田市吉田町山手１０５９−１
西条のん太の酒蔵,東広島市,34.4334768,132.7031845,日本、〒739-0041 広島県東広島市西条町寺家１００２０−４３
阿武町,阿武郡阿武町,34.4982592,131.4679758,日本、〒759-3622 山口県阿武郡阿武町奈古２２４９
萩往還,萩市,34.3776778,131.4062045,日本、〒758-0061 山口県萩市椿 字鹿背ヶ坂１２５８
あさひ,萩市,34.2862579,131.459526,日本、〒753-0101 山口県萩市佐々並２４７６−１
あいお,山口市,34.0288155,131.4572714,日本、〒754-1101 山口県山口市秋穂東１５２０−４
ゆとりパークたまがわ,萩市,34.6481452,131.6648132,日本、〒759-3112 山口県萩市下田万２８４９−１
サザンセトとうわ,大島郡周防大島町,33.9042876,132.3418135,日本、〒742-2921 山口県大島郡周防大島町西方１９５８−７７
きくがわ,下関市,34.1261447,131.031686,日本、〒750-0321 山口県下関市菊川町大字上岡枝766番地１
ハピネスふくえ,萩市,34.4341162,131.482492,日本、〒758-0212 山口県萩市福井下４０１４−２
長門峡,山口市,34.3030913,131.576266,日本、〒759-1231 山口県山口市阿東生雲東分４７−１
ピュアラインにしき,岩国市,34.2784403,131.9694135,日本、〒740-0723 山口県岩国市錦町府谷１１７
おふく,美祢市,34.25838,131.1904335,日本、〒759-2301 山口県美祢市於福町４３８３−１
みとう,美祢市,34.2322934,131.3560996,日本、〒754-0211 山口県美祢市美東町大田近光５４８０−１ 近光５４８０−１
仁保の郷,山口市,34.2107103,131.5591158,日本、〒753-0302 山口県山口市仁保中郷１０３４
萩しーまーと,萩市,34.4258926,131.4133251,日本、〒758-0011 山口県萩市椿東４１６０−６１
願成就温泉,山口市,34.4343545,131.7706178,日本、〒759-1511 山口県山口市阿東徳佐上２−９５
うり坊の郷ｋａｔａｍａｔａ,萩市,34.4835629,131.6319773,日本、〒758-0301 山口県萩市片俣１２４４−１
蛍街道西ノ市,下関市,34.1841931,131.0700429,日本、〒750-0441 山口県下関市豊田町 中村８７６−４
きらら　あじす,山口市,34.0161877,131.3310303,日本、〒754-1277 山口県山口市阿知須１０５０９−８８
萩・さんさん三見,萩市,34.38885610000001,131.3218516,日本、〒759-3721 山口県萩市三見１０２８−２
北浦街道　豊北,下関市,34.310314,130.8886013,日本、〒759-6121 山口県下関市豊北町大字神田上３１４−１
ソレーネ周南,周南市,34.0742893,131.6885053,日本、〒745-1131 山口県周南市戸田２７１３
上関海峡,熊毛郡上関町,33.8346079,132.1167741,日本、〒742-1403 山口県熊毛郡上関町室津９０４−１５
潮彩市場防府,防府市,34.0380569,131.5977112,日本、〒747-0824 山口県防府市新築地町２−３
センザキッチン,長門市,34.3879362,131.2034661,日本、〒759-4106 山口県長門市仙崎４２９７−１
貞光ゆうゆう館,美馬郡つるぎ町,34.0426817,134.0598526,日本、〒779-4100 徳島県美馬郡つるぎ町貞光大須賀１１−１
鷲の里,那賀郡那賀町,33.8633195,134.5022761,日本、〒771-5203 徳島県那賀郡那賀町和食郷田野89
宍喰温泉,海部郡海陽町,33.5690355,134.3017704,日本、〒775-0502 徳島県海部郡海陽町久保板取２１９−６
どなり,阿波市,34.1510348,134.3522569,日本、〒771-1508 徳島県阿波市土成町宮川内平間２８−２
にしいや,三好市,33.88887140000001,133.8110796,日本、〒778-0101 徳島県三好市西祖谷山村尾井ノ内３４８−２
わじき,那賀郡那賀町,33.8676556,134.5530444,日本、〒771-5204 徳島県那賀郡那賀町中山関が原３４−５６
公方の郷なかがわ,阿南市,33.9530024,134.6679158,日本、〒779-1236 徳島県阿南市那賀川町工地８０３
もみじ川温泉,那賀郡那賀町,33.791368,134.4434679,日本、〒771-5410 徳島県那賀郡那賀町大久保西納野４−７
温泉の里神山,名西郡神山町,33.9735836,134.3678027,日本、〒771-3310 徳島県名西郡神山町神領西上角１５１−１
藍ランドうだつ,美馬市,34.0675595,134.1463608,日本、〒779-3610 徳島県美馬市脇町大字脇町５５
三野,三好市,34.0505239,133.9322823,日本、〒771-2305 徳島県三好市三野町太刀野１９０９−１
日和佐,海部郡美波町,33.72967149999999,134.5302897,日本、〒779-2305 徳島県海部郡美波町奥河内寺前４９３−６
第九の里,鳴門市,34.1638511,134.498835,日本、〒779-0225 徳島県鳴門市大麻町桧東山田５３
大歩危,三好市,33.88126750000001,133.7601177,日本、〒779-5452 徳島県三好市山城町上名１５５３−１
ひなの里かつうら,勝浦郡勝浦町,33.9321099,134.5229295,日本、〒771-4303 徳島県勝浦郡勝浦町生名月ノ瀬４−１
みまの里,美馬市,34.0545125,134.057586,日本、〒771-2105 徳島県美馬市美馬町願勝寺７２
いたの,板野郡板野町,34.1376127,134.4728491,日本、〒779-0102 徳島県板野郡板野町川端中手崎 39番地5
くるくる なると,鳴門市,34.1601701,134.5796105,日本、〒772-0042 徳島県鳴門市大津町備前島 字蟹田の越３３８−１
瀬戸大橋記念公園,坂出市,34.3530121,133.8260265,日本、〒762-0065 香川県坂出市番の州緑町６−１３
津田の松原,さぬき市,34.28524480000001,134.2532504,日本、〒769-2401 香川県さぬき市津田町津田１０３−３
ことひき,観音寺市,34.1306116,133.6437354,日本、〒768-0062 香川県観音寺市有明町３−３７
ふれあいパークみの,三豊市,34.2176497,133.7190392,日本、〒767-0031 香川県三豊市三野町大見乙７４
小豆島オリーブ公園,小豆郡小豆島町,34.4728411,134.2736368,日本、〒761-4434 香川県小豆郡小豆島町西村 甲１９４１−１
小豆島ふるさと村,小豆郡小豆島町,34.4697152,134.2331102,日本、〒761-4301 香川県小豆郡小豆島町室生２０８４−１
空の夢もみの木パーク,仲多度郡まんのう町,34.1548934,133.8216111,日本、〒769-0319 香川県仲多度郡まんのう町追上４２４−１
みろく,さぬき市,34.25820119999999,134.2423429,日本、〒761-0902 香川県さぬき市大川町富田中３２９８−１
しおのえ,高松市,34.1700182,134.0820451,日本、〒761-1612 香川県高松市塩江町安原上東３９０−２１ 道の駅しおのえ
滝宮,綾歌郡綾川町,34.2506175,133.9172025,日本、〒761-2305 香川県綾歌郡綾川町滝宮１５７８
ことなみ,仲多度郡まんのう町,34.0950503,134.0078778,日本、〒766-0203 香川県仲多度郡まんのう町川東２３５５−１
恋人の聖地　うたづ臨海公園,綾歌郡宇多津町,34.3173346,133.8157145,日本、〒769-0201 香川県綾歌郡宇多津町浜一番丁４
とよはま,観音寺市,34.0427032,133.6014916,日本、〒769-1604 香川県観音寺市豊浜町箕浦２５０６
たからだの里さいた,三豊市,34.110103,133.7979981,日本、〒769-0401 香川県三豊市財田町財田上１８０−６
大坂城残石記念公園,小豆郡土庄町,34.5339278,134.2420767,日本、〒761-4144 香川県小豆郡土庄町小海甲９０９−１
ながお,さぬき市,34.2213578,134.1750458,日本、〒769-2305 香川県さぬき市前山９４０−１２
香南楽湯,高松市,34.2394649,134.0071927,日本、〒761-1404 香川県高松市香南町横井９９７−２
源平の里むれ,高松市,34.333787,134.1574528,日本、〒761-0123 香川県高松市牟礼町原631番地7
瀬戸農業公園,西宇和郡伊方町,33.4476681,132.2574899,日本、〒796-0506 愛媛県西宇和郡伊方町塩成乙２９３
マイントピア別子,新居浜市,33.9007419,133.3097144,日本、〒792-0846 愛媛県新居浜市立川町７０７−３
日吉夢産地,北宇和郡鬼北町,33.3303638,132.7985205,日本、〒798-1502 愛媛県北宇和郡鬼北町下鍵山５４
ひろた,伊予郡砥部町,33.6404128,132.7998669,日本、〒791-2205 愛媛県伊予郡砥部町総津１６２−１
ふたみ,伊予市,33.6856704,132.6350714,日本、〒799-3207 愛媛県伊予市双海町高岸甲２３２６
内子フレッシュパークからり,喜多郡内子町,33.5543805,132.6576953,日本、〒790-0934 愛媛県喜多郡内子町内子２４５２
伊方きらら館,西宇和郡伊方町,33.4809658,132.3072787,日本、〒796-0421 愛媛県西宇和郡伊方町九町３−１７９
きなはい屋しろかわ,西予市,33.3799498,132.7491099,日本、〒797-1717 愛媛県西予市城川町下相１００８−１
みしょうＭＩＣ,南宇和郡愛南町,32.9587586,132.5616387,日本、〒798-4110 愛媛県南宇和郡愛南町御荘平城４２９６−１
今治湯ノ浦温泉,今治市,33.9928156,133.0484277,日本、〒799-1527 愛媛県今治市長沢２５２ 甲 ２５２-２
虹の森公園まつの,北宇和郡松野町,33.2296985,132.7093926,日本、〒798-2102 愛媛県北宇和郡松野町延野々１５１０−１
広見森の三角ぼうし,北宇和郡鬼北町,33.2538873,132.6870539,日本、〒798-1333 愛媛県北宇和郡鬼北町永野市１３８−６
伯方Ｓ・Ｃパーク,今治市,34.202625,133.0753385,日本、〒794-2302 愛媛県今治市伯方町叶浦１６６８−１
今治市多々羅しまなみ公園,今治市,34.254162,133.0540416,日本、〒794-1402 愛媛県今治市上浦町井口9180番地2
しまなみの駅御島,今治市,34.2489087,133.0054912,日本、〒794-1304 愛媛県今治市大三島町宮浦３２６０
小松オアシス,西条市,33.8836464,133.1076589,日本、〒799-1101 愛媛県西条市小松町新屋敷２２−２９
みかわ,上浮穴郡久万高原町,33.61443,132.9710168,日本、〒791-1501 愛媛県上浮穴郡久万高原町上黒岩２８４０
清流の里ひじかわ,大洲市,33.4610557,132.6773195,日本、〒797-1503 愛媛県大洲市肱川町宇和川３０３０
よしうみいきいき館,今治市,34.1277663,133.0218144,日本、〒794-2114 愛媛県今治市吉海町名４５２０−２
風早の郷風和里,松山市,33.9966763,132.7723495,日本、〒799-2408 愛媛県松山市大浦１１９
みま,宇和島市,33.2860996,132.596107,日本、〒798-1114 愛媛県宇和島市三間町務田１８０−１
小田の郷せせらぎ,喜多郡内子町,33.5684391,132.800805,日本、〒791-3502 愛媛県喜多郡内子町寺村２５１−１
うわじま　きさいや広場,宇和島市,33.2234728,132.5586202,日本、〒798-0006 愛媛県宇和島市弁天町１丁目３１８−１６
霧の森,四国中央市,33.9242171,133.6415988,日本、〒799-0301 愛媛県四国中央市新宮町馬立４４９１−１
八幡浜みなっと,八幡浜市,33.4582314,132.4183038,日本、〒796-0088 愛媛県八幡浜市沖新田１５８１−２３
津島やすらぎの里,宇和島市,33.1397392,132.5203113,日本、〒798-3302 愛媛県宇和島市津島町高田甲８３０−１
どんぶり館,西予市,33.3550148,132.5273223,日本、〒797-0013 愛媛県西予市宇和町稲生１１８
天空の郷さんさん,上浮穴郡久万高原町,33.6614332,132.8979831,日本、〒791-1202 愛媛県上浮穴郡久万高原町入野１８５５−６
なかやま,伊予市,33.6701797,132.6945739,日本、〒791-3206 愛媛県伊予市中山町中山子２７１
大杉,長岡郡大豊町,33.745035,133.6591202,日本、〒789-0311 高知県長岡郡大豊町杉７４３−１
すくも,宿毛市,32.9161822,132.7124253,日本、〒788-0261 高知県宿毛市小筑紫町田ノ浦１２４４−１０
大月,幡多郡大月町,32.8298362,132.7106082,日本、〒788-0302 高知県幡多郡大月町弘見２６１０番地
四万十大正,高岡郡四万十町,33.1824929,132.9712834,日本、〒786-0301 高知県高岡郡四万十町大正１７−１
ゆすはら,高岡郡梼原町,33.3882327,132.9451286,日本、〒785-0621 高知県高岡郡梼原町太郎川３７９９−３
南国風良里,南国市,33.6111015,133.6420861,日本、〒783-0052 高知県南国市左右山１０２−１
美良布,香美市,33.6482712,133.7821463,日本、〒781-4212 高知県香美市香北町美良布１２１１
布施ヶ坂,高岡郡津野町,33.4300548,133.0923114,日本、〒785-0411 高知県高岡郡津野町船戸小宮谷６５４−１
キラメッセ室戸,室戸市,33.3067335,134.1101224,日本、〒781-6833 高知県室戸市吉良川町丙８９０−１１
土佐和紙工芸村,吾川郡いの町,33.5733723,133.3666087,日本、〒781-2136 高知県吾川郡いの町鹿敷１２２６
土佐さめうら,土佐郡土佐町,33.7427176,133.5442466,日本、〒781-3521 高知県土佐郡土佐町田井４４８−２
大山,安芸市,33.4706286,133.9441631,日本、〒784-0046 高知県安芸市下山１４００
かわうその里すさき,須崎市,33.3876527,133.2747008,日本、〒785-0022 高知県須崎市下分甲２６３−３
あぐり窪川,高岡郡四万十町,33.230772,133.1492726,日本、〒786-0026 高知県高岡郡四万十町平串２８４−１
木の香,吾川郡いの町,33.7794794,133.3075444,日本、〒781-2615 高知県吾川郡いの町桑瀬２２５−２４
めじかの里土佐清水,土佐清水市,32.8139574,132.8589142,日本、〒787-0450 高知県土佐清水市三崎 西シリソメ671-1
やす,香南市,33.5341718,133.75374,日本、〒781-5602 高知県香南市夜須町千切５３７−９０
６３３美の里,吾川郡いの町,33.6434505,133.3284093,日本、〒781-2401 高知県吾川郡いの町上八川甲１１６０−２
田野駅屋,安芸郡田野町,33.4279337,134.0081071,日本、〒781-6410 高知県安芸郡田野町１４３１−１
ビオスおおがた,幡多郡黒潮町,33.0350108,133.0270422,日本、〒789-1911 高知県幡多郡黒潮町浮鞭９５３−１
四万十とおわ,高岡郡四万十町,33.2240743,132.8357404,日本、〒786-0535 高知県高岡郡四万十町十和川口６２−９
なぶら土佐佐賀,幡多郡黒潮町,33.0890565,133.1002498,日本、〒789-1721 高知県幡多郡黒潮町佐賀１３５０
よって西土佐,四万十市,33.1732098,132.7889979,日本、〒787-1601 高知県四万十市西土佐江川崎２４１０−３
なかとさ,高岡郡中土佐町,33.3222382,133.2356568,日本、〒789-1301 高知県高岡郡中土佐町久礼8645ｰ2
まきのさんの道の駅・佐川,高岡郡佐川町,33.5038879,133.3189469,日本、〒789-1204 高知県高岡郡佐川町加茂２７１１−１
原鶴,朝倉市,33.3543422,130.7855032,日本、〒838-1514 福岡県朝倉市杷木久喜宮１６６５−１
豊前おこしかけ,豊前市,33.6140817,131.1005717,日本、〒828-0011 福岡県豊前市四郎丸１０４１−１
小石原,朝倉郡東峰村,33.4643147,130.8254835,日本、〒838-1601 福岡県朝倉郡東峰村小石原９４１番地３
しんよしとみ,築上郡上毛町,33.5888442,131.1543818,日本、〒871-0902 福岡県築上郡上毛町大ノ瀬304番地1
うきは,うきは市,33.3341932,130.8183081,日本、〒839-1408 福岡県うきは市浮羽町山北７２９−２
おおむた,大牟田市,33.0731964,130.5321824,日本、〒837-0907 福岡県大牟田市四箇新町２丁目１
たちばな,八女市,33.1873959,130.6104139,日本、〒834-0073 福岡県八女市立花町下辺春３１５−１
うすい,嘉麻市,33.5639129,130.7132033,日本、〒820-0502 福岡県嘉麻市上臼井３２８−１
歓遊舎ひこさん,田川郡添田町,33.5500764,130.8596484,日本、〒824-0604 福岡県田川郡添田町野田１１１３−１
むなかた,宗像市,33.8484514,130.5034527,日本、〒811-3502 福岡県宗像市江口１１７２
くるめ,久留米市,33.3190347,130.5941205,日本、〒839-0822 福岡県久留米市善導寺町木塚２２１−３３
香春,田川郡香春町,33.6767149,130.8600237,日本、〒822-1402 福岡県田川郡香春町鏡山１８７０番地−１
おおき,三潴郡大木町,33.217885,130.4376673,日本、〒830-0405 福岡県三潴郡大木町 大字 大字横溝 １３３１−１
おおとう桜街道,田川郡大任町,33.6255197,130.8458584,日本、〒824-0511 福岡県田川郡大任町今任原１３３９
みやま,みやま市,33.1473801,130.4838915,日本、〒835-0019 福岡県みやま市瀬高町大江２３２８
いとだ,田川郡糸田町,33.644864,130.7677978,日本、〒822-1326 福岡県田川郡糸田町１６２−４
筑前みなみの里,朝倉郡筑前町,33.467273,130.624967,日本、〒838-0205 福岡県朝倉郡筑前町三並８６６
鹿島,鹿島市,33.0756988,130.1455491,日本、〒849-1323 佐賀県鹿島市音成甲４４２７−６
厳木,唐津市,33.3111666,130.0712492,日本、〒849-3113 佐賀県唐津市厳木町牧瀬６９２−１
伊万里,伊万里市,33.31385059999999,129.9292786,日本、〒848-0007 佐賀県伊万里市南波多町井手野２７５４−９
桃山天下市,唐津市,33.5286917,129.8731601,日本、〒847-0401 佐賀県唐津市鎮西町名護屋１８５９
山内,武雄市,33.1917773,129.9562133,日本、〒849-2303 佐賀県武雄市山内町三間坂 甲１４６９７番地２
大和,佐賀市,33.3391065,130.2573702,日本、〒840-0203 佐賀県佐賀市大和町大字梅野８０５
吉野ヶ里,神埼郡吉野ヶ里町,33.3803501,130.3974377,日本、〒842-0101 佐賀県神埼郡吉野ヶ里町松隈１７１０−１１
太良,藤津郡太良町,33.0464228,130.1694447,日本、〒849-1601 佐賀県藤津郡太良町伊福３４８８−２
しろいし,杵島郡白石町,33.1770656,130.1954277,日本、〒849-0402 佐賀県杵島郡白石町福富下分３０６−４
うれしの まるく,嬉野市,33.1066964,129.9971175,日本、〒843-0301 佐賀県嬉野市嬉野町大字下宿甲４３７０−２
生月大橋,平戸市,33.355194,129.4335558,日本、〒859-5706 長崎県平戸市生月町南免４３７５−１
ひまわり,南島原市,32.7394023,130.3673779,日本、〒859-1504 長崎県南島原市深江町丁６０７７
昆虫の里たびら,平戸市,33.317527,129.603033,日本、〒859-4813 長崎県平戸市田平町深月免５２１−３
彼杵の荘,東彼杵郡東彼杵町,33.0358736,129.9198857,日本、〒859-3807 長崎県東彼杵郡東彼杵町彼杵宿郷７４７−２
さいかい,西海市,33.04323189999999,129.696097,日本、〒851-3504 長崎県西海市西海町木場郷４８８−１
夕陽が丘そとめ,長崎市,32.8358335,129.7036673,日本、〒851-2327 長崎県長崎市東出津町１４９−２
松浦海のふるさと館,松浦市,33.348476,129.7019249,日本、〒859-4507 長崎県松浦市志佐町庄野免２２６−３０
遣唐使ふるさと館,五島市,32.7383484,128.6902797,日本、〒853-0601 長崎県五島市三井楽町濱ノ畔３１５０−１
鷹ら島,松浦市,33.43377,129.7823773,日本、〒859-4303 長崎県松浦市鷹島町神崎免１６３６
させぼっくす　９９,佐世保市,33.19296,129.6595576,日本、〒858-0917 長崎県佐世保市相浦町１１
長崎街道鈴田峠,大村市,32.8853494,130.0075767,日本、〒856-0842 長崎県大村市中里町４５２−２２
小国,阿蘇郡小国町,33.1231106,131.0647348,日本、〒869-2501 熊本県阿蘇郡小国町宮原１７５４−１７
波野,阿蘇市,32.9600382,131.1974737,日本、〒869-2801 熊本県阿蘇市波野大字小地野１６０２
旭志,菊池市,32.9310563,130.8305433,日本、〒869-1205 熊本県菊池市旭志川辺１８８６ 1886番地
大津,菊池郡大津町,32.8807779,130.890971,日本、〒869-1234 熊本県菊池郡大津町引水７５９
坂本,八代市,32.4275506,130.6399402,日本、〒869-6115 熊本県八代市坂本町荒瀬１２３９−１
不知火,宇城市,32.6329921,130.6283685,日本、〒869-3471 熊本県宇城市不知火町永尾１９１０−１
有明,天草市,32.5050985,130.3060024,日本、〒861-7311 熊本県天草市有明町上津浦１９５５
鹿北,山鹿市,33.1135237,130.6687254,日本、〒861-0603 熊本県山鹿市鹿北町岩野４１８６−１３０
七城メロンドーム,菊池市,32.9803964,130.7702512,日本、〒861-1368 熊本県菊池市七城町岡田３０６
泗水,菊池市,32.92505970000001,130.7714778,日本、〒861-1212 熊本県菊池市泗水町豊水３３９３
きくすい,玉名郡和水町,32.972884,130.6022917,日本、〒865-0136 熊本県玉名郡和水町江田４５５
清和文楽邑,上益城郡山都町,32.6947797,131.0771984,日本、〒861-3811 熊本県上益城郡山都町大平１５２
通潤橋,上益城郡山都町,32.6814442,130.9916109,日本、〒861-3513 熊本県上益城郡山都町下市１８４−１
竜北,八代郡氷川町,32.5690137,130.7031814,日本、〒869-4804 熊本県八代郡氷川町大野８７５−３
錦,球磨郡錦町,32.2057726,130.8444555,日本、〒868-0302 熊本県球磨郡錦町一武１５４４−１
たのうら,葦北郡芦北町,32.3643631,130.5121975,日本、〒869-5302 熊本県葦北郡芦北町田浦６５７ ６５７番地
子守唄の里　五木,球磨郡五木村,32.3970895,130.8261628,日本、〒868-0201 熊本県球磨郡五木村甲２６７２−５４
宇土マリーナ,宇土市,32.6624443,130.5220471,日本、〒869-3173 熊本県宇土市下網田町３０８４−１
阿蘇,阿蘇市,32.9375224,131.0797762,日本、〒869-2225 熊本県阿蘇市黒川１４４０−１
みなまた,水俣市,32.1991777,130.3813865,日本、〒867-0035 熊本県水俣市月浦５４−１６２
うき,宇城市,32.6512086,130.6977142,日本、〒869-0532 熊本県宇城市松橋町久具７５７−３
そよ風パーク,上益城郡山都町,32.7244791,131.1678047,日本、〒861-3913 熊本県上益城郡山都町今２９７
大野温泉,葦北郡芦北町,32.2897042,130.5823397,日本、〒869-6301 熊本県葦北郡芦北町天月１０００
美里「佐俣の湯」,下益城郡美里町,32.6236282,130.8224912,日本、〒861-4412 熊本県下益城郡美里町佐俣７０５
上天草さんぱーる,上天草市,32.5772267,130.4201529,日本、〒869-3603 熊本県上天草市大矢野町中１１５８２−２４
うしぶか海彩館,天草市,32.1940936,130.0271754,日本、〒863-1901 熊本県天草市牛深町２２８６−１１６
あそ望の郷くぎの,阿蘇郡南阿蘇村,32.8181976,131.0415473,日本、〒869-1412 熊本県阿蘇郡南阿蘇村久石２８０１
水辺プラザかもと,山鹿市,32.9876915,130.7572154,日本、〒861-0312 熊本県山鹿市鹿本町梶屋１２５７
すいかの里植木,熊本市,32.9081056,130.6933217,日本、〒861-0136 熊本県熊本市北区植木町岩野１６０−１
芦北でこぽん,葦北郡芦北町,32.3033031,130.5079047,日本、〒869-5441 熊本県葦北郡芦北町佐敷４４３
﨑津,天草市,32.3172285,130.0255062,日本、〒863-1204 熊本県天草市河浦町崎津１１１７−１０
天草市イルカセンター,天草市,32.5455101,130.1305939,日本、〒863-2421 熊本県天草市五和町二江４６８９−２０
人吉,人吉市,32.1929773,130.7897359,日本、〒868-0825 熊本県人吉市赤池原町１４２５−１
宮地岳かかしの里,天草市,32.3852122,130.1266378,日本、〒863-1161 熊本県天草市宮地岳町５５１６−１
東陽,八代市,32.5478147,130.7157778,日本、〒869-4301 熊本県八代市東陽町南１０５１−１
原尻の滝,豊後大野市,32.9656743,131.4522964,日本、〒879-6631 大分県豊後大野市緒方町原尻９３６
宇目,佐伯市,32.8035237,131.6104209,日本、〒879-3302 大分県佐伯市宇目大字南田原２５１３−５
竹田,竹田市,32.9853993,131.3408047,日本、〒878-0145 大分県竹田市米納６６３−１
佐賀関,大分市,33.2472547,131.8284616,日本、〒879-2114 大分県大分市大平９８９−６
やまくに,中津市,33.426644,131.0545241,日本、〒871-0716 大分県中津市山国町中摩358番地4
耶馬トピア,中津市,33.4898235,131.1745846,日本、〒871-0202 大分県中津市本耶馬渓町曽木２１９３−１
あさじ,豊後大野市,33.0025821,131.4480777,日本、〒879-6223 大分県豊後大野市朝地町板井迫１０１８−１
いんない,宇佐市,33.423746,131.3202362,日本、〒872-0318 大分県宇佐市院内町副１３８１−２
せせらぎ郷かみつえ,日田市,33.1123591,130.9615722,日本、〒877-0311 大分県日田市上津江町上津江町川原３８４８−１
やよい,佐伯市,32.964976,131.8387303,日本、〒876-0112 大分県佐伯市弥生大字上小倉８９８−１
鯛生金山,日田市,33.1290128,130.8825584,日本、〒877-0302 大分県日田市中津江村合瀬３７５０
きよかわ,豊後大野市,32.9717245,131.5181936,日本、〒879-6903 大分県豊後大野市清川町砂田１５７４−１
ゆふいん,由布市,33.2606543,131.3274306,日本、〒879-5114 大分県由布市湯布院町川上 川北 ８９９-７６
みえ,豊後大野市,33.0286972,131.6214979,日本、〒879-7101 大分県豊後大野市三重町宮野２７９１−１
くにさき,国東市,33.5455378,131.7393783,日本、〒873-0511 大分県国東市国東町小原２６６２−１
水辺の郷おおやま,日田市,33.2476692,130.9720564,日本、〒877-0201 大分県日田市大山町西大山４１０６
かまえ,佐伯市,32.8018792,131.9251075,日本、〒876-2401 大分県佐伯市蒲江大字蒲江浦５１０４−１
ながゆ温泉,竹田市,33.0716501,131.3831345,日本、〒878-0402 大分県竹田市直入町大字長湯８０４３−１
おおの,豊後大野市,33.0361164,131.5028807,日本、〒879-6441 大分県豊後大野市大野町田中４３−１０
くにみ,国東市,33.6804252,131.6056915,日本、〒872-1401 大分県国東市国見町伊美４２５２−１
童話の里　くす,玖珠郡玖珠町,33.2894167,131.1569978,日本、〒879-4403 大分県玖珠郡玖珠町帆足２１２１
すごう,竹田市,32.9565171,131.2936599,日本、〒879-6184 大分県竹田市菅生９８９−１
なかつ,中津市,33.5515318,131.2137207,日本、〒871-0152 大分県中津市加来８１４
慈恩の滝　くす,玖珠郡玖珠町,33.2659845,131.0684801,日本、〒879-4332 大分県玖珠郡玖珠町山浦６１８−２４
のつはる,大分市,33.12692639999999,131.4921649,日本、〒870-1213 大分県大分市下原１７１７−１
たのうらら,大分市,33.12692639999999,131.4921649,日本、〒870-1213 大分県大分市下原１７１７−１
高岡,宮崎市,31.9458518,131.3406285,日本、〒880-2211 宮崎県宮崎市高岡町花見３０４−５
北川はゆま,延岡市,32.666046,131.704424,日本、〒889-0102 宮崎県延岡市北川町長井５７５１−１
青雲橋,西臼杵郡日之影町,32.6606325,131.3886196,日本、〒882-0401 宮崎県西臼杵郡日之影町七折８７０５−１２
山之口,都城市,31.794393,131.2027459,日本、〒889-1803 宮崎県都城市山之口町山之口２３０４−６
北浦,延岡市,32.6847635,131.8009239,日本、〒889-0301 宮崎県延岡市北浦町古江３３３７−１
田野,宮崎市,31.7964707,131.3078347,日本、〒889-1701 宮崎県宮崎市田野町甲７８８５−１６４
酒谷,日南市,31.6562513,131.2205911,日本、〒889-2512 宮崎県日南市酒谷１８４０−４
とうごう,日向市,32.4009574,131.5087782,日本、〒883-0106 宮崎県日向市東郷町山陰２４４−１
都城NiQLL,都城市,31.7689163,131.0943949,日本、〒885-0004 宮崎県都城市都北町５２２５−１
ゆ～ぱるのじり,小林市,31.9645225,131.0823638,日本、〒886-0213 宮崎県小林市野尻町三ケ野山４３４７−１
なんごう,日南市,31.5029688,131.3785154,日本、〒889-3211 宮崎県日南市南郷町贄波３２２０−２４
日向,日向市,32.3433321,131.6243365,日本、〒889-1112 宮崎県日向市幸脇２４１−７
高千穂,西臼杵郡高千穂町,32.7085637,131.3007165,日本、〒882-1101 宮崎県西臼杵郡高千穂町三田井１２９６−３４
フェニックス,宮崎市,31.7687665,131.4786688,日本、〒889-2301 宮崎県宮崎市内海３８１−１
つの,児湯郡都農町,32.2602883,131.5580818,日本、〒889-1201 宮崎県児湯郡都農町川北５１２９
えびの,えびの市,32.049786,130.805576,日本、〒889-4234 宮崎県えびの市永山１００６−１
北方よっちみろ屋,延岡市,32.5955525,131.4917765,日本、〒882-0243 宮崎県延岡市北方町早日渡巳１７５−１
くしま,串間市,31.4627719,131.228213,日本、〒888-0001 宮崎県串間市西方5503ｰ1
きたごう,日南市,31.5029688,131.3785154,日本、〒889-3211 宮崎県日南市南郷町贄波３２２０−２４
喜入,鹿児島市,31.3794319,130.5448993,日本、〒891-0203 鹿児島県鹿児島市喜入町６０９４−１
霧島,霧島市,31.8633125,130.851193,日本、〒899-4201 鹿児島県霧島市霧島田口２５８３−２２
樋脇,薩摩川内市,31.7963716,130.4073928,日本、〒895-1203 鹿児島県薩摩川内市樋脇町市比野１５６
松山,志布志市,31.5816813,131.0424929,日本、〒899-7601 鹿児島県志布志市松山町新橋１５２６
阿久根,阿久根市,31.9459829,130.2164796,日本、〒899-1741 鹿児島県阿久根市大川４８１６−６
長島,出水郡長島町,32.1617072,130.1092245,日本、〒899-1303 鹿児島県出水郡長島町指江１５７６−１
くにの松原おおさき,曽於郡大崎町,31.4375236,131.0305014,日本、〒899-7302 鹿児島県曽於郡大崎町神領２４１９
根占,肝属郡南大隅町,31.1855218,130.7673626,日本、〒893-2504 鹿児島県肝属郡南大隅町根占山本６８６８
川辺やすらぎの郷,南九州市,31.4136414,130.4331489,日本、〒897-0202 鹿児島県南九州市川辺町清水６９１０
奄美大島住用,奄美市,28.258649,129.4087362,日本、〒894-1201 鹿児島県奄美市住用町大字石原４７８
桜島,鹿児島市,31.5894243,130.5988589,日本、〒891-1419 鹿児島県鹿児島市桜島横山町１７２２−４８
きんぽう木花館,南さつま市,31.4656713,130.3455044,日本、〒899-3405 鹿児島県南さつま市金峰町池辺１３８３
おおすみ弥五郎伝説の里,曽於市,31.590234,130.9904674,日本、〒899-8102 鹿児島県曽於市大隅町岩川６１３４−１
たからべ,曽於市,31.728543,130.9987792,日本、〒899-4101 鹿児島県曽於市財部町南俣１７−１
いぶすき,指宿市,31.3019451,130.5900278,日本、〒891-0314 鹿児島県指宿市小牧５２
たるみず,垂水市,31.5588128,130.7451059,日本、〒899-4632 鹿児島県垂水市牛根麓１０３８−１
すえよし,曽於市,31.6884373,130.9701702,日本、〒899-8606 鹿児島県曽於市末吉町深川１１０５１−１
黒之瀬戸だんだん市場,出水郡長島町,32.1082662,130.1709838,日本、〒899-1211 鹿児島県出水郡長島町山門野４０９３−４０９３
山川港活お海道,指宿市,31.2030456,130.6348041,日本、〒891-0506 鹿児島県指宿市山川金生町１−１０
錦江にしきの里,肝属郡錦江町,31.2745695,130.7930783,日本、〒893-2301 鹿児島県肝属郡錦江町神川３３０６−１８
野方あらさの,曽於郡大崎町,31.5001386,130.9240891,日本、〒899-8313 鹿児島県曽於郡大崎町野方２８１０−７
たるみずはまびら,垂水市,31.4686877,130.6978727,日本、〒891-2115 鹿児島県垂水市浜平２０３６−６
許田,名護市,26.5520097,127.9699874,日本、〒905-0024 沖縄県名護市許田１７−１
おおぎみ,国頭郡大宜味村,26.6608333,128.1033608,日本、〒905-1318 沖縄県国頭郡大宜味村津波９５
ゆいゆい国頭,国頭郡国頭村,26.7314994,128.1696192,日本、〒905-1412 沖縄県国頭郡国頭村奥間１６０５
かでな,中頭郡嘉手納町,26.3679821,127.7741982,日本、〒904-0202 沖縄県中頭郡嘉手納町屋良１０２６−３
喜名番所,中頭郡読谷村,26.3993097,127.7582085,日本、〒904-0302 沖縄県中頭郡読谷村喜名１−２ 讀谷山村役場
豊崎,豊見城市,26.1577313,127.6552764,日本、〒901-0225 沖縄県豊見城市豊崎３−３９
いとまん,糸満市,26.1386528,127.6617357,日本、〒901-0306 沖縄県糸満市西崎町４丁目２０−４
ぎのざ,国頭郡宜野座村,26.4736843,127.9520032,日本、〒904-1304 沖縄県国頭郡宜野座村漢那１６３３
サンライズひがし,国頭郡東村,26.6309345,128.1535464,日本、〒905-1204 沖縄県国頭郡東村平良５５０−２３
やんばるパイナップルの丘安波,国頭郡国頭村,26.7051297,128.2805146,日本、〒905-1504 沖縄県国頭郡国頭村安波1089番地7
